{"type":"FeatureCollection","name":"water_care_reference_basemap_east_asia","metadata":{"schema_version":1,"source_dataset":"Natural Earth ne_10m_admin_0_countries","source_sha256":"596d2ac14f754169a4302fe26bda1e95fa97d3ddbf7a5ac9762596de156b9153","license":"Public Domain","derivative":"clipped and simplified for display only","bounds":[104.0,18.0,166.0,54.0],"simplify_tolerance_degrees":0.03,"feature_count":14},"features":[{"type":"Feature","properties":{"source_index":9},"geometry":{"type":"MultiPolygon","coordinates":[[[[104.0,41.7967],[104.5008,41.8706],[104.5049,41.6566],[104.8923,41.6448],[104.9738,41.5861],[105.2009,41.7435],[106.7678,42.2866],[108.1774,42.4543],[108.7969,42.3984],[108.9613,42.4475],[109.4851,42.4493],[109.6673,42.549],[110.4067,42.7686],[110.9734,43.3156],[111.5677,43.5025],[111.7538,43.6632],[111.9334,43.6966],[111.9443,43.7864],[111.8388,43.9388],[111.6345,44.0659],[111.4906,44.2826],[111.3964,44.3466],[111.5382,44.5834],[111.5514,44.6932],[111.7385,44.9663],[111.8433,45.0395],[111.9734,45.087],[112.4128,45.066],[112.586,44.9238],[112.7485,44.8653],[113.6048,44.7397],[113.8893,44.9083],[114.0893,44.9618],[114.4189,45.2015],[114.5337,45.3855],[114.7033,45.4272],[114.9389,45.3738],[115.3373,45.3947],[115.6674,45.4543],[116.0021,45.6756],[116.1699,45.7091],[116.2516,45.8033],[116.2132,45.9082],[116.5683,46.2909],[116.8146,46.3867],[117.3375,46.3573],[117.3938,46.5714],[117.5682,46.6035],[117.6734,46.516],[117.7976,46.5203],[117.9006,46.6076],[118.269,46.7229],[118.7201,46.6767],[118.8465,46.7655],[118.8906,46.7135],[118.9672,46.7405],[119.037,46.6687],[119.3169,46.6117],[119.6801,46.5916],[119.8544,46.6597],[119.907,46.7183],[119.8964,46.8986],[119.7701,46.993],[119.7,47.1595],[119.2819,47.4149],[119.3101,47.4761],[119.1339,47.5275],[119.0835,47.6616],[118.7674,47.7562],[118.5423,47.9662],[118.1825,48.0282],[117.7669,47.9931],[117.3608,47.6509],[117.0697,47.8102],[116.822,47.8763],[116.4997,47.8364],[116.2439,47.8629],[115.9145,47.6839],[115.5757,47.9097],[115.5142,48.1316],[115.8,48.2423],[115.8004,48.5304],[116.0282,48.7675],[116.0378,48.8701],[116.6843,49.8233],[117.0576,49.6729],[117.8369,49.509],[118.6444,49.9546],[119.0917,49.9866],[119.3162,50.0927],[119.3566,50.3408],[119.1376,50.3925],[119.2437,50.4455],[119.2936,50.5992],[119.4967,50.7371],[119.518,50.9048],[119.7408,51.0715],[119.7622,51.215],[119.815,51.2159],[119.8196,51.2747],[119.9157,51.3307],[119.8953,51.384],[119.9529,51.3977],[120.1005,51.6599],[120.4931,51.8757],[120.6476,51.911],[120.7109,51.9883],[120.6973,52.0487],[120.7792,52.1176],[120.7581,52.2374],[120.6262,52.3468],[120.724,52.5422],[120.454,52.639],[120.0794,52.59],[120.0338,52.6254],[120.033,52.7607],[120.2802,52.8659],[120.8743,53.2802],[121.2035,53.2767],[122.3168,53.496],[122.4016,53.4509],[122.8597,53.4739],[123.1536,53.5131],[123.2526,53.5678],[123.4815,53.5181],[123.5144,53.5624],[123.5419,53.5141],[123.6143,53.5633],[123.9706,53.4552],[124.1218,53.3527],[124.2531,53.3755],[124.3837,53.2461],[124.6516,53.2088],[124.8701,53.108],[124.8977,53.1855],[125.0737,53.2122],[125.5213,53.0424],[125.6214,53.0621],[125.7335,52.9817],[125.6465,52.8849],[125.8374,52.9067],[125.9769,52.765],[126.088,52.7754],[126.0351,52.7271],[126.0686,52.6799],[125.9828,52.653],[125.9908,52.5864],[126.2123,52.533],[126.2003,52.4671],[126.276,52.4633],[126.3507,52.3769],[126.3157,52.3162],[126.4393,52.2753],[126.3167,52.1998],[126.556,52.1306],[126.4393,51.9979],[126.6479,51.7413],[126.7256,51.7087],[126.6769,51.5766],[126.8074,51.5342],[126.8003,51.419],[126.9094,51.3911],[126.809,51.2891],[126.8699,51.2517],[126.8994,51.3165],[126.9722,51.324],[126.9052,51.2081],[126.9318,51.0638],[127.2874,50.751],[127.289,50.6752],[127.3671,50.5778],[127.289,50.466],[127.3585,50.4151],[127.3307,50.3282],[127.5906,50.2087],[127.4867,50.0256],[127.5387,49.7899],[127.6443,49.7671],[127.7036,49.6606],[127.8547,49.5849],[127.9679,49.6032],[128.1983,49.539],[128.6719,49.6114],[128.8017,49.5651],[128.7601,49.4709],[128.9982,49.4413],[129.1154,49.3488],[129.2179,49.3908],[129.341,49.3412],[129.3787,49.425],[129.4806,49.4213],[129.5518,49.2905],[129.7112,49.2742],[129.7418,49.1957],[129.9207,49.0819],[129.9265,49.0257],[130.2018,48.8826],[130.6743,48.8708],[130.5297,48.6163],[130.6202,48.5605],[130.6264,48.4823],[130.759,48.4857],[130.7433,48.4116],[130.8251,48.3178],[130.6747,48.1359],[130.6747,48.0639],[130.907,47.8843],[130.9418,47.718],[131.0234,47.6823],[131.4184,47.7426],[131.6033,47.6615],[132.3324,47.7365],[132.5247,47.7075],[132.668,47.8813],[132.6746,47.9506],[132.8059,47.9362],[133.092,48.1068],[133.5244,48.0954],[133.7379,48.2511],[134.3863,48.3813],[134.7187,48.2634],[134.683,48.1355],[134.5594,48.0095],[134.7726,47.7107],[134.5569,47.4712],[134.3129,47.4201],[134.1836,47.3275],[134.1541,47.2579],[134.2273,47.1177],[134.1242,47.0705],[134.0692,46.9812],[134.0148,46.665],[133.8458,46.4707],[133.9339,46.3908],[133.8634,46.3393],[133.916,46.313],[133.9025,46.259],[133.6874,46.1418],[133.72,46.0638],[133.6581,45.9345],[133.5144,45.8793],[133.4773,45.8201],[133.5114,45.7786],[133.443,45.7097],[133.4878,45.6867],[133.4773,45.6277],[133.1798,45.4938],[133.1019,45.2872],[133.0988,45.1078],[132.9212,45.0279],[131.9688,45.234],[131.8531,45.3376],[131.7232,45.2153],[131.6278,45.1985],[131.6091,45.0897],[131.4338,44.9613],[131.0516,44.909],[130.9334,44.8417],[131.0658,44.682],[131.2645,44.0542],[131.2067,43.9748],[131.1607,43.5328],[131.2743,43.4512],[131.2809,43.3802],[131.1691,43.2017],[131.184,43.1208],[131.0783,43.0318],[131.103,42.9104],[130.9924,42.8487],[130.7695,42.8658],[130.4072,42.7354],[130.4038,42.6776],[130.5039,42.6778],[130.5719,42.6218],[130.5845,42.5689],[130.5308,42.5305],[130.5014,42.6108],[130.4525,42.5493],[130.2627,42.7086],[130.239,42.9022],[130.0988,42.9215],[130.1215,42.9818],[129.8798,42.996],[129.907,42.9761],[129.8517,42.9619],[129.7573,42.7347],[129.7876,42.6769],[129.7033,42.4424],[129.5917,42.448],[129.5352,42.3696],[129.4341,42.4411],[129.3401,42.4455],[129.1939,42.3182],[129.228,42.2977],[129.1808,42.2431],[129.2112,42.22],[128.9638,42.0885],[128.9401,42.0354],[128.0346,41.9937],[128.0478,41.864],[128.303,41.5834],[128.1461,41.3763],[128.0152,41.4133],[128.0014,41.4709],[127.6383,41.4299],[127.5429,41.4913],[127.1346,41.522],[127.1047,41.5374],[127.1797,41.5852],[127.059,41.6433],[127.0427,41.7326],[126.9298,41.801],[126.7886,41.6959],[126.6795,41.736],[126.728,41.7013],[126.567,41.6142],[126.5013,41.4344],[126.5221,41.3519],[126.4409,41.3484],[126.2748,41.1526],[126.1238,41.0755],[125.9806,40.9136],[126.0078,40.8993],[125.7609,40.8857],[125.6448,40.8106],[125.6826,40.7689],[125.5717,40.7849],[125.4133,40.6318],[125.2933,40.6486],[125.0251,40.5344],[125.0413,40.4611],[124.8955,40.4836],[124.7125,40.3103],[124.3582,40.0891],[124.3613,40.0112],[124.2942,39.9338],[124.1372,39.8424],[123.773,39.8183],[123.6431,39.8786],[123.6567,39.9195],[123.5914,39.7843],[123.5132,39.7978],[123.4277,39.7266],[123.4171,39.8245],[123.3141,39.7761],[123.252,39.8171],[123.2654,39.7541],[123.2042,39.7451],[123.2691,39.7076],[123.2232,39.6798],[123.0091,39.6805],[122.9641,39.6116],[122.8486,39.6179],[122.29,39.351],[122.115,39.2008],[122.1045,39.1591],[122.1627,39.1461],[122.0423,39.0597],[121.8884,39.0425],[121.9232,39.009],[121.8269,39.0363],[121.8953,38.981],[121.8713,38.9506],[121.7247,39.0302],[121.7388,39.0015],[121.6358,38.9953],[121.6526,38.9634],[121.5874,38.9401],[121.6936,38.9096],[121.6963,38.8629],[121.2367,38.7985],[121.1795,38.7209],[121.1145,38.7681],[121.1524,38.8863],[121.0862,38.9057],[121.1179,38.9434],[121.3343,38.9686],[121.3748,39.0442],[121.4673,39.0151],[121.6741,39.088],[121.5899,39.2641],[121.6802,39.2752],[121.7798,39.3715],[121.943,39.3994],[121.5259,39.3647],[121.436,39.5086],[121.2234,39.5286],[121.4639,39.6458],[121.5333,39.6223],[121.5501,39.6787],[121.4573,39.7485],[121.4707,39.8102],[121.8738,39.9914],[121.8269,40.0225],[121.9957,40.1239],[121.9915,40.187],[122.0916,40.2272],[122.1061,40.3101],[122.3019,40.5023],[122.1504,40.6039],[122.1594,40.7016],[122.1218,40.6801],[121.8511,40.8323],[121.8259,40.9482],[121.8679,40.9958],[121.7777,40.935],[121.7396,40.8491],[121.575,40.8415],[121.3613,40.9396],[121.2993,40.8996],[121.1758,40.9223],[121.0499,40.7974],[120.9819,40.8268],[120.9395,40.7405],[121.0207,40.7193],[120.8253,40.674],[120.7984,40.5997],[120.5457,40.4024],[120.5912,40.3673],[120.5018,40.3269],[120.472,40.2143],[119.5356,39.8908],[119.5307,39.8147],[119.4294,39.7953],[119.2849,39.5954],[119.2086,39.5696],[119.2293,39.536],[119.2814,39.575],[119.2794,39.384],[119.1848,39.3548],[118.926,39.1306],[118.8943,39.1244],[118.97,39.1933],[118.8806,39.1728],[118.8738,39.2138],[118.796,39.1518],[118.5271,39.1492],[118.3261,39.0309],[118.028,39.2198],[117.7154,39.1114],[117.7753,38.9811],[117.7019,38.9953],[117.584,38.8116],[117.5435,38.6213],[117.7161,38.3785],[118.0652,38.1431],[118.543,38.0683],[118.6549,38.1457],[118.7604,38.1551],[118.95,38.0973],[118.9248,38.0578],[118.9966,37.9631],[119.2596,37.7158],[119.2177,37.6752],[119.0695,37.7406],[118.97,37.5935],[118.9612,37.2956],[119.1455,37.1789],[119.4412,37.1206],[119.7706,37.1518],[119.8973,37.2494],[119.8589,37.3602],[120.1876,37.5118],[120.3225,37.6324],[120.2157,37.6841],[120.3685,37.6947],[120.738,37.834],[120.9258,37.8193],[121.0326,37.7104],[121.138,37.7012],[121.1716,37.5771],[121.3936,37.6225],[121.4298,37.5969],[121.3817,37.5661],[121.5703,37.4287],[121.6761,37.4392],[121.5874,37.4536],[121.635,37.4813],[121.9378,37.4643],[121.988,37.4256],[122.0256,37.528],[122.1218,37.5627],[122.1832,37.4182],[122.2454,37.4597],[122.2965,37.4182],[122.6882,37.4098],[122.5708,37.3448],[122.5947,37.2952],[122.5497,37.3198],[122.6289,37.1928],[122.4707,37.1103],[122.4539,37.1543],[122.457,37.0659],[122.4024,37.0215],[122.54,37.0277],[122.5074,36.898],[122.4985,36.9389],[122.4058,36.9222],[122.4364,36.8707],[122.3198,36.8229],[122.1853,36.8499],[122.1969,36.898],[122.2659,36.898],[122.1627,36.9458],[122.1661,37.0141],[122.1429,36.9458],[122.0331,36.898],[122.0492,36.9799],[121.9263,36.9936],[121.9498,36.9389],[121.6375,36.8314],[121.6253,36.7404],[121.4964,36.7745],[121.6072,36.845],[121.4595,36.8287],[121.4017,36.7124],[121.1577,36.6686],[121.0235,36.5839],[120.8506,36.6509],[120.7506,36.6168],[120.7503,36.5408],[120.8504,36.6046],[120.9636,36.5479],[120.95,36.4592],[120.8674,36.3772],[120.8069,36.4639],[120.7141,36.4287],[120.6865,36.3872],[120.7222,36.3306],[120.6436,36.3225],[120.7048,36.1562],[120.6278,36.1165],[120.3535,36.0408],[120.292,36.062],[120.3616,36.1916],[120.3064,36.2742],[120.2845,36.176],[120.0972,36.2264],[120.0897,36.1117],[120.1685,36.062],[120.1753,35.9936],[120.2428,35.9736],[120.2849,36.0109],[120.2988,35.9731],[120.1753,35.89],[120.189,35.9453],[120.0972,35.9008],[120.0029,35.7278],[119.9082,35.7449],[119.9046,35.6246],[119.8602,35.6061],[119.8401,35.6579],[119.7439,35.5759],[119.7325,35.6208],[119.648,35.5839],[119.5515,35.38],[119.4239,35.3135],[119.358,35.0971],[119.2212,35.064],[119.1929,35.0004],[119.1922,34.7182],[119.3467,34.7808],[119.4422,34.746],[119.4566,34.6846],[119.6477,34.5338],[120.2571,34.3118],[120.3997,33.8693],[120.5049,33.7356],[120.4837,33.65],[120.6344,33.4669],[120.6672,33.3251],[120.7503,33.2696],[120.7302,33.2049],[120.807,33.1378],[120.8259,33.0302],[120.8958,33.0136],[120.9048,32.8126],[120.8303,32.6977],[121.1008,32.498],[121.3894,32.3849],[121.4193,32.2503],[121.3608,32.2316],[121.4434,32.1143],[121.6554,32.0629],[121.7986,31.9705],[121.9221,31.7544],[121.9148,31.7064],[121.8173,31.6909],[121.2864,31.8906],[121.1151,31.7963],[120.9778,31.8144],[120.8108,32.0226],[120.6344,32.077],[120.4908,32.0825],[120.2671,31.9487],[120.1314,31.9432],[119.992,32.0159],[119.9122,32.1237],[119.9221,32.2174],[119.8421,32.2991],[119.6129,32.3546],[119.6854,32.2924],[119.606,32.1969],[119.6904,32.2353],[119.7886,32.1986],[119.7725,32.1268],[120.0064,31.9503],[120.23,31.9089],[120.4558,31.9825],[120.4695,32.0251],[120.7504,31.9783],[120.8248,31.8287],[120.7171,31.8611],[120.7315,31.8139],[121.1444,31.6847],[121.3203,31.5048],[121.7252,31.2816],[121.9508,30.9821],[121.9601,30.8743],[121.5429,30.8165],[120.9981,30.5579],[120.9151,30.3746],[120.8318,30.3053],[120.7874,30.2936],[120.6981,30.394],[120.4791,30.4035],[120.4303,30.3898],[120.379,30.2735],[120.2579,30.2981],[120.1471,30.1989],[120.2744,30.2776],[120.3847,30.2496],[120.4505,30.3689],[120.6216,30.3726],[120.7344,30.2322],[120.6318,30.1224],[120.6825,30.0849],[120.7922,30.0661],[120.6463,30.1269],[120.7514,30.2256],[120.8928,30.1698],[121.2541,30.3484],[121.4296,30.293],[121.7219,29.9605],[121.9356,29.8874],[122.1291,29.9038],[121.8731,29.7538],[121.6873,29.5626],[121.4434,29.5242],[121.4426,29.4154],[121.5049,29.4838],[121.4849,29.3905],[121.7109,29.5386],[121.764,29.5308],[121.7784,29.4694],[121.812,29.4901],[121.8448,29.5362],[121.745,29.5447],[121.7961,29.6006],[121.9158,29.6409],[121.9712,29.5933],[121.9104,29.5246],[121.971,29.4491],[121.9226,29.4181],[121.9005,29.2987],[121.9915,29.2573],[121.943,29.1959],[121.7853,29.1681],[121.7997,29.3051],[121.8406,29.3188],[121.7882,29.3286],[121.7866,29.3745],[121.7243,29.182],[121.6525,29.183],[121.6404,29.3066],[121.6289,29.1884],[121.5743,29.3051],[121.5035,29.1789],[121.4085,29.1611],[121.4564,29.1338],[121.4017,29.1065],[121.6214,29.1133],[121.6148,29.0581],[121.5369,29.0612],[121.5321,29.0205],[121.6419,29.0513],[121.6898,29.0171],[121.6538,28.9886],[121.7178,28.9488],[121.6842,28.9147],[121.5874,28.9631],[121.5708,28.9301],[121.5169,28.9564],[121.4918,28.9284],[121.6699,28.8253],[121.6214,28.7359],[121.3512,28.7119],[121.1423,28.8459],[121.2993,28.7229],[121.2584,28.6751],[121.4138,28.6966],[121.5101,28.6571],[121.5816,28.5047],[121.5116,28.4895],[121.6077,28.4772],[121.5838,28.4429],[121.6563,28.3393],[121.5855,28.2568],[121.5415,28.3218],[121.4089,28.3049],[121.3458,28.1452],[121.2617,28.2258],[121.2252,28.2389],[121.2489,28.2702],[121.2031,28.3319],[121.2647,28.366],[121.169,28.3848],[121.1303,28.3056],[121.025,28.3046],[121.1218,28.2844],[121.1248,28.2355],[120.9652,27.9871],[120.606,28.0422],[120.577,28.1156],[120.5596,28.1128],[120.589,28.0267],[120.8353,27.956],[120.8684,27.8826],[120.7226,27.7159],[120.6353,27.7633],[120.6756,27.6597],[120.5966,27.5703],[120.682,27.4816],[120.6353,27.3797],[120.5459,27.4033],[120.5049,27.345],[120.5493,27.321],[120.5178,27.2016],[120.4217,27.2221],[120.4292,27.1737],[120.3762,27.2363],[120.3473,27.2494],[120.3031,27.2423],[120.3119,27.3177],[120.2237,27.3115],[120.2257,27.2686],[120.1958,27.2978],[120.1824,27.2169],[120.3473,27.2426],[120.3473,27.1805],[120.4217,27.147],[120.3739,27.147],[120.408,27.1396],[120.3775,27.0986],[120.2437,27.1327],[120.2783,27.0638],[120.2163,27.0371],[120.2552,26.9971],[120.1487,26.9819],[120.2357,26.9664],[120.2191,26.9154],[120.032,26.8999],[120.0245,26.8379],[120.1282,26.7969],[120.0977,26.7585],[120.1487,26.7212],[120.1021,26.6892],[120.1344,26.6461],[119.96,26.6113],[119.8472,26.5236],[119.8538,26.5983],[119.9841,26.6535],[120.0797,26.7969],[119.9251,26.7922],[119.8796,26.6553],[119.8292,26.715],[119.7918,26.6877],[119.8401,26.79],[119.7974,26.8164],[119.8463,26.8522],[119.782,26.8285],[119.7562,26.7377],[119.6858,26.812],[119.7249,26.6978],[119.606,26.7969],[119.5521,26.7491],[119.606,26.6945],[119.5999,26.6461],[119.5411,26.6563],[119.5999,26.5704],[119.6751,26.6188],[119.7849,26.5778],[119.7918,26.4133],[119.6537,26.498],[119.5664,26.4549],[119.6484,26.4374],[119.6819,26.3171],[119.7471,26.3276],[119.8258,26.4269],[119.8401,26.3786],[119.95,26.3649],[119.7927,26.2841],[119.6543,26.2724],[119.6682,26.2215],[119.6001,26.1763],[119.4585,25.9825],[119.4356,25.9813],[119.415,26.0093],[119.2771,26.0529],[119.2158,26.1001],[119.0935,26.1458],[119.1952,26.0876],[119.2468,25.9672],[119.3298,25.9443],[119.4409,25.9638],[119.5191,26.0445],[119.6954,26.0026],[119.5999,25.8442],[119.5664,25.8721],[119.6209,25.7603],[119.5899,25.6872],[119.4491,25.6872],[119.4924,25.5648],[119.5794,25.5847],[119.5726,25.4879],[119.628,25.4614],[119.6204,25.365],[119.6546,25.3581],[119.5794,25.3445],[119.576,25.4674],[119.5386,25.4612],[119.5444,25.3772],[119.4832,25.3712],[119.5073,25.4744],[119.447,25.4388],[119.4491,25.5053],[119.3565,25.5269],[119.3809,25.5909],[119.3052,25.6046],[119.2378,25.4818],[119.1025,25.4203],[119.1732,25.3251],[119.2034,25.3581],[119.2013,25.2597],[119.2778,25.3302],[119.3442,25.2424],[119.2813,25.2414],[119.2556,25.1759],[119.1161,25.2138],[119.1531,25.1397],[119.0991,25.1112],[119.0647,25.1625],[119.0291,25.1405],[119.0689,25.2167],[118.9693,25.2264],[119.0273,25.2782],[118.8756,25.2438],[118.9153,25.1794],[118.9746,25.1826],[118.943,25.1088],[118.8491,25.0738],[118.9537,25.003],[119.0042,25.0502],[119.0177,24.9603],[118.9116,24.9534],[118.952,24.8708],[118.7921,24.8911],[118.7161,24.8436],[118.7295,24.9005],[118.6956,24.9404],[118.6888,24.8957],[118.6677,24.9534],[118.6712,24.8747],[118.572,24.8852],[118.638,24.7721],[118.7018,24.81],[118.763,24.7627],[118.6854,24.6665],[118.6421,24.6787],[118.6615,24.5903],[118.6205,24.5455],[118.554,24.5181],[118.5781,24.5602],[118.4281,24.6313],[118.4312,24.6997],[118.4048,24.6066],[118.284,24.5978],[118.219,24.5414],[118.1605,24.6934],[118.1104,24.5841],[118.0444,24.6177],[118.0374,24.5606],[117.9749,24.5527],[118.0581,24.5159],[117.9995,24.4709],[118.0217,24.4457],[117.7913,24.4675],[117.9073,24.3849],[118.043,24.4067],[118.0159,24.3269],[118.0906,24.3415],[118.1265,24.262],[117.9788,24.1621],[117.9436,24.2126],[117.9073,24.1863],[117.9378,24.1617],[117.8936,24.028],[117.8391,24.0236],[117.7481,23.9075],[117.7981,24.0218],[117.7617,24.0148],[117.7633,24.0703],[117.7241,24.0338],[117.6671,24.0627],[117.7088,24.0355],[117.6951,23.9536],[117.5917,23.7371],[117.5711,23.9033],[117.4166,23.9468],[117.4996,23.8741],[117.4901,23.8326],[117.4343,23.7759],[117.2774,23.7822],[117.2571,23.6156],[117.2295,23.6928],[117.2192,23.6296],[117.0842,23.5506],[117.0684,23.6513],[116.9507,23.6109],[116.9165,23.6627],[116.8721,23.6069],[116.8666,23.4502],[116.7732,23.3494],[116.5232,23.4185],[116.573,23.3237],[116.7486,23.3263],[116.8048,23.2361],[116.6672,23.2813],[116.7151,23.2438],[116.6468,23.163],[116.6115,23.2387],[116.5089,23.2341],[116.6045,23.2096],[116.5336,23.1091],[116.5632,23.0188],[116.4947,22.9394],[116.2136,22.9828],[116.2815,22.9579],[116.1449,22.8478],[116.0957,22.8259],[116.1237,22.8947],[116.0421,22.9329],[116.0762,22.8679],[115.81,22.7461],[115.8048,22.8151],[115.6843,22.8778],[115.7303,22.9342],[115.5606,22.8493],[115.5476,22.8954],[115.406,22.925],[115.483,22.9018],[115.468,22.8493],[115.5594,22.8361],[115.6121,22.8636],[115.527,22.767],[115.5556,22.7144],[115.5901,22.7372],[115.5752,22.6683],[115.3735,22.6942],[115.3385,22.7331],[115.4112,22.7883],[115.2334,22.7882],[115.3202,22.8505],[115.3038,22.903],[115.1729,22.8212],[115.1803,22.7848],[115.0655,22.796],[114.9853,22.6893],[114.9417,22.7539],[114.8625,22.7632],[114.9666,22.6765],[114.896,22.5475],[114.8658,22.6017],[114.7438,22.6094],[114.742,22.7327],[114.8213,22.7906],[114.7752,22.8158],[114.5221,22.706],[114.5066,22.6465],[114.5903,22.6439],[114.4954,22.562],[114.6177,22.5141],[114.5158,22.4526],[114.3958,22.6135],[114.0553,22.5069],[113.9638,22.5381],[113.8903,22.4527],[113.8939,22.5211],[113.7581,22.7534],[113.6724,22.7469],[113.6172,22.8903],[113.6056,22.8472],[113.6382,23.0349],[113.5967,22.9182],[113.6172,23.0349],[113.5762,22.9387],[113.583,23.0212],[113.5288,23.0108],[113.5821,23.0985],[113.8301,23.1175],[113.7031,23.1578],[113.542,23.0864],[113.5091,23.0622],[113.4175,23.097],[113.5023,23.0204],[113.484,22.9243],[113.213,22.9045],[113.3504,22.8897],[113.4942,22.7748],[113.4395,22.7394],[113.3775,22.7674],[113.5992,22.5752],[113.5464,22.4376],[113.5581,22.3808],[113.6104,22.3702],[113.5877,22.2379],[113.4837,22.1551],[113.2764,22.3721],[113.1653,22.5756],[113.1602,22.4876],[113.402,22.1796],[113.3027,22.1833],[113.251,22.1157],[113.2472,22.0543],[113.1575,22.0247],[113.0851,22.2076],[113.0579,22.1211],[113.0206,22.126],[113.0256,21.9494],[112.9116,21.8563],[112.826,21.9661],[112.6451,21.8494],[112.608,21.7751],[112.5509,21.7729],[112.426,21.8452],[112.4111,21.9012],[112.4937,21.9661],[112.3906,21.9555],[112.3975,22.0685],[112.3565,21.9797],[112.4021,21.8014],[112.2862,21.7088],[112.1824,21.753],[112.1926,21.8432],[112.0282,21.7973],[112.0413,21.8842],[111.9692,21.824],[111.8904,21.9251],[111.9041,21.8153],[112.0003,21.7743],[111.8679,21.6767],[111.8351,21.7668],[111.6781,21.7812],[111.7606,21.7258],[111.7469,21.6439],[111.7879,21.616],[111.7129,21.6234],[111.6305,21.5299],[111.5819,21.5819],[111.5956,21.5341],[111.4761,21.5136],[111.4322,21.603],[111.438,21.5341],[111.3628,21.5412],[111.4043,21.5267],[111.2673,21.4394],[111.3013,21.4993],[111.1924,21.5312],[111.158,21.5136],[111.2263,21.4993],[111.0884,21.4726],[111.13,21.4993],[111.0276,21.5409],[110.9797,21.4447],[111.0422,21.4846],[111.0686,21.4726],[110.9929,21.4249],[110.7682,21.3975],[110.6509,21.2604],[110.6776,21.3485],[110.6433,21.3218],[110.6365,21.3703],[110.7554,21.4134],[110.76,21.4447],[110.6356,21.381],[110.6365,21.2302],[110.5752,21.2467],[110.5887,21.2256],[110.4815,21.2172],[110.4312,21.1915],[110.4243,21.2877],[110.4789,21.2734],[110.4448,21.3076],[110.4863,21.3355],[110.4339,21.3088],[110.4373,21.3975],[110.3585,21.4357],[110.3895,21.3287],[110.3281,21.3355],[110.4082,21.238],[110.3994,21.1766],[110.2188,21.0276],[110.1956,21.0713],[110.1431,20.9923],[110.1567,20.8489],[110.369,20.8489],[110.4094,20.751],[110.3565,20.7323],[110.3418,20.8215],[110.3008,20.6571],[110.3281,20.6776],[110.3145,20.6365],[110.4789,20.5677],[110.5342,20.4783],[110.4068,20.3052],[110.2803,20.253],[110.1275,20.248],[110.0379,20.3017],[109.9172,20.2393],[109.9287,20.3264],[109.8628,20.4063],[109.9036,20.4311],[109.9824,20.3515],[110.0098,20.4342],[109.9309,20.5063],[109.9172,20.4448],[109.8221,20.5165],[109.8482,20.5956],[109.8211,20.5546],[109.7516,20.6737],[109.8604,20.7155],[109.7869,20.6911],[109.7595,20.855],[109.739,20.8078],[109.7044,20.842],[109.7179,20.8078],[109.6612,20.9276],[109.7117,21.0338],[109.6702,21.1232],[109.7732,21.2154],[109.7657,21.3559],[109.9241,21.3628],[109.9444,21.4931],[109.8414,21.5068],[109.8142,21.4584],[109.7732,21.5819],[109.7732,21.4857],[109.6497,21.5205],[109.677,21.6234],[109.608,21.5751],[109.6155,21.6501],[109.5609,21.6713],[109.5945,21.7464],[109.4647,21.6645],[109.5728,21.5817],[109.5308,21.4916],[109.4244,21.4524],[109.3208,21.4801],[109.245,21.4316],[109.2388,21.4857],[109.2146,21.4174],[109.1494,21.4385],[109.1387,21.4016],[109.0398,21.4503],[109.1426,21.5102],[109.1358,21.603],[109.0464,21.603],[109.0667,21.6439],[108.928,21.6151],[108.8552,21.685],[108.9241,21.7668],[108.8695,21.7538],[108.8614,21.8153],[108.8014,21.8183],[108.8435,21.745],[108.7796,21.7258],[108.8614,21.6439],[108.7454,21.603],[108.7249,21.7464],[108.6832,21.7054],[108.6492,21.7333],[108.6832,21.7402],[108.6463,21.7514],[108.677,21.8153],[108.5945,21.7402],[108.5714,21.8128],[108.6355,21.8903],[108.5603,21.8955],[108.5733,21.9518],[108.4915,21.8563],[108.4778,21.945],[108.458,21.9177],[108.5051,21.7879],[108.4778,21.6986],[108.5051,21.6713],[108.5201,21.7126],[108.5331,21.7191],[108.5188,21.6713],[108.5654,21.6785],[108.471,21.562],[108.3897,21.5751],[108.471,21.6713],[108.386,21.6729],[108.3413,21.7258],[108.2838,21.5447],[108.211,21.5006],[108.2528,21.5885],[108.2061,21.6426],[108.1764,21.5758],[107.9912,21.5484],[108.0396,21.5205],[108.0222,21.4857],[108.0806,21.4857],[107.9707,21.4316],[107.9912,21.4857],[107.8116,21.6478],[107.5013,21.5815],[107.426,21.6521],[107.3482,21.5994],[107.2727,21.7183],[107.1724,21.7151],[107.0029,21.8106],[107.0094,21.9274],[106.9204,21.917],[106.7288,22.0083],[106.6531,21.9689],[106.6629,22.2233],[106.6338,22.3094],[106.5418,22.3451],[106.5269,22.4383],[106.5771,22.5953],[106.6802,22.5795],[106.7987,22.7844],[106.6675,22.8675],[106.6104,22.8529],[106.4878,22.9254],[106.2554,22.8547],[106.2024,22.947],[106.0776,22.981],[105.8539,22.9047],[105.6903,23.044],[105.5516,23.0597],[105.5283,23.1555],[105.2937,23.3663],[105.2009,23.254],[104.8701,23.1635],[104.7979,23.0856],[104.8236,22.9241],[104.7008,22.8182],[104.5535,22.836],[104.3402,22.6864],[104.2368,22.7421],[104.2412,22.8244],[104.0869,22.7916],[104.0,22.6074],[104.0,41.7967]]],[[[110.9346,19.9951],[111.0347,19.6422],[110.9658,19.636],[110.8765,19.5398],[110.8218,19.5678],[110.8626,19.6087],[110.8063,19.6127],[110.7962,19.4846],[110.6697,19.3817],[110.5803,19.1552],[110.4792,19.1693],[110.5549,19.0873],[110.5823,19.1501],[110.5134,18.9064],[110.4315,18.8215],[110.4928,18.7931],[110.5034,18.8819],[110.5344,18.7856],[110.469,18.7772],[110.4035,18.6628],[110.3352,18.6733],[110.4109,18.6901],[110.4035,18.7038],[110.2708,18.6682],[110.0881,18.5043],[110.0342,18.5119],[110.0825,18.4778],[110.0403,18.3823],[109.9686,18.3898],[110.0137,18.4089],[110.0205,18.4505],[109.8355,18.3823],[109.7461,18.3959],[109.7318,18.273],[109.6704,18.273],[109.7393,18.2587],[109.7088,18.2072],[109.6773,18.2451],[109.5612,18.1693],[109.5612,18.2587],[109.4787,18.1927],[109.5065,18.2528],[109.44,18.289],[109.1626,18.2878],[109.136,18.3612],[108.9909,18.3687],[108.6849,18.5152],[108.6936,18.7199],[108.6239,18.8492],[108.6563,18.944],[108.6152,19.1016],[108.6834,19.1562],[108.627,19.275],[108.6865,19.3779],[108.9448,19.492],[109.0085,19.5971],[109.1565,19.6496],[109.2112,19.7248],[109.3074,19.7111],[109.2732,19.7936],[109.1633,19.7248],[109.1668,19.8055],[109.2551,19.8983],[109.3114,19.9195],[109.465,19.8341],[109.5817,19.8557],[109.5202,19.8825],[109.5575,19.9173],[109.527,19.9514],[109.719,20.0106],[109.7181,19.9575],[109.8076,19.9514],[109.8159,19.9912],[109.8355,19.9309],[109.9426,19.9909],[109.9901,19.906],[110.0137,19.9575],[110.1227,19.9743],[110.1496,20.0066],[110.0682,19.9848],[110.157,20.0674],[110.3447,20.0581],[110.4177,19.9234],[110.383,20.081],[110.5755,19.9992],[110.6058,19.9232],[110.5662,20.0695],[110.6779,20.1636],[110.7883,20.0104],[110.9346,19.9951]]],[[[111.9895,21.6578],[111.9998,21.6212],[111.8093,21.5655],[111.8353,21.6439],[111.9895,21.6578]]],[[[112.6546,21.6985],[112.6504,21.6404],[112.5193,21.6067],[112.5559,21.6781],[112.6546,21.6985]]],[[[112.8626,21.7694],[112.7975,21.7059],[112.8106,21.5893],[112.7649,21.5819],[112.7344,21.6287],[112.7744,21.6917],[112.7117,21.7025],[112.7775,21.7726],[112.8626,21.7694]]],[[[113.3827,22.0896],[113.4058,22.007],[113.3094,22.0241],[113.3827,22.0896]]],[[[113.354,22.1308],[113.3136,22.0764],[113.2688,22.0883],[113.315,22.154],[113.354,22.1308]]],[[[113.6029,22.7724],[113.5583,22.7579],[113.3962,22.8981],[113.4756,22.9007],[113.6029,22.7724]]],[[[116.943,23.4301],[117.1259,23.4827],[117.1288,23.3994],[116.943,23.4301]]],[[[117.5042,23.7499],[117.4798,23.6627],[117.4211,23.6465],[117.4316,23.5826],[117.3205,23.574],[117.3937,23.6792],[117.3405,23.689],[117.3727,23.7667],[117.5042,23.7499]]],[[[119.2576,26.0476],[119.3906,25.967],[119.2576,26.0015],[119.2092,26.0986],[119.2576,26.0476]]],[[[121.2306,28.2197],[121.2791,28.0854],[121.1516,28.0412],[121.1204,28.1357],[121.2306,28.2197]]],[[[122.2388,30.3131],[122.2023,30.2419],[122.0736,30.2914],[122.2114,30.3466],[122.2388,30.3131]]],[[[122.411,30.4521],[122.4231,30.4149],[122.2854,30.4221],[122.2728,30.4695],[122.411,30.4521]]],[[[121.7942,31.3688],[121.8818,31.3366],[121.8347,31.2925],[121.7942,31.3688]]],[[[119.9014,32.0825],[119.792,32.1218],[119.8193,32.2038],[119.7162,32.2726],[119.8143,32.2756],[119.9014,32.0825]]],[[[122.3889,39.1523],[122.3548,39.1956],[122.4026,39.2138],[122.3889,39.1523]]],[[[122.6621,39.2327],[122.7186,39.2419],[122.742,39.2361],[122.6907,39.1933],[122.6621,39.2327]]],[[[122.6844,39.2622],[122.5335,39.2717],[122.5051,39.2969],[122.6844,39.2622]]],[[[121.4424,39.4629],[121.4217,39.3737],[121.3369,39.3774],[121.3643,39.4455],[121.2595,39.3915],[121.3406,39.4813],[121.4424,39.4629]]],[[[122.9797,39.4993],[122.9898,39.5495],[123.04,39.5297],[122.9797,39.4993]]],[[[110.6061,20.9538],[110.6304,20.9258],[110.5892,20.8835],[110.5475,20.9177],[110.6061,20.9538]]],[[[110.5264,21.0821],[110.5169,20.9376],[110.4414,21.0058],[110.2459,20.986],[110.2731,21.0611],[110.3099,21.0529],[110.3352,21.0686],[110.2874,21.0744],[110.3898,21.0959],[110.4177,21.0406],[110.5264,21.0821]]],[[[110.617,21.1989],[110.5432,21.105],[110.4177,21.1846],[110.5432,21.2042],[110.5549,21.1567],[110.617,21.1989]]],[[[118.1121,24.5456],[118.1893,24.5031],[118.1365,24.4293],[118.07,24.4603],[118.1121,24.5456]]],[[[119.8745,25.5568],[119.7988,25.5158],[119.8465,25.4612],[119.772,25.4506],[119.7573,25.4049],[119.7039,25.4236],[119.6777,25.5012],[119.7783,25.522],[119.7162,25.5363],[119.7136,25.6306],[119.7817,25.6592],[119.8745,25.5568]]],[[[121.9588,29.1081],[121.8887,29.0723],[121.8682,29.1474],[121.9432,29.1611],[121.9588,29.1081]]],[[[122.1148,29.7885],[122.1869,29.6734],[122.1629,29.6545],[122.0329,29.7309],[122.1148,29.7885]]],[[[122.4067,29.9527],[122.3952,29.8333],[122.3301,29.9582],[122.4067,29.9527]]],[[[121.8477,30.0832],[121.9033,30.0018],[121.8474,29.9821],[121.8477,30.0832]]],[[[122.3267,30.0108],[122.2936,29.9338],[122.1847,29.9945],[122.0105,30.0003],[121.9631,30.1424],[122.1033,30.1437],[122.3267,30.0108]]],[[[121.6632,31.6524],[121.9801,31.5403],[121.9779,31.4778],[121.8173,31.4467],[121.3145,31.6556],[121.1763,31.7843],[121.2641,31.8411],[121.3861,31.8117],[121.6632,31.6524]]],[[[109.1277,21.0322],[109.0999,21.0607],[109.1227,21.0654],[109.1277,21.0322]]],[[[120.7484,37.9387],[120.7263,37.9088],[120.7271,37.9477],[120.7484,37.9387]]],[[[120.6019,37.9693],[120.6257,37.9587],[120.6184,37.947],[120.6019,37.9693]]],[[[120.7201,37.9809],[120.7005,37.9699],[120.6902,37.9906],[120.7201,37.9809]]],[[[120.7604,38.1705],[120.7466,38.1619],[120.7427,38.1876],[120.7604,38.1705]]],[[[120.8362,38.3043],[120.8074,38.3049],[120.8338,38.3126],[120.8362,38.3043]]],[[[120.9232,38.3832],[120.9178,38.3955],[120.9246,38.3869],[120.9232,38.3832]]],[[[123.1436,39.0809],[123.1956,39.0521],[123.1607,39.0292],[123.1436,39.0809]]],[[[110.437,20.6679],[110.4573,20.5869],[110.4177,20.6548],[110.437,20.6679]]],[[[113.2577,21.9466],[113.2585,21.8804],[113.2217,21.9141],[113.2577,21.9466]]],[[[113.7717,22.0003],[113.7645,21.9668],[113.7363,21.9972],[113.7717,22.0003]]],[[[114.3042,22.0693],[114.2224,22.0217],[114.2067,22.0258],[114.3042,22.0693]]],[[[113.466,22.1015],[113.5189,22.1273],[113.5476,22.0926],[113.4847,22.0714],[113.466,22.1015]]],[[[113.6118,22.4305],[113.6578,22.4238],[113.6212,22.3914],[113.6118,22.4305]]],[[[113.5595,22.735],[113.6357,22.6565],[113.6418,22.6016],[113.4765,22.7195],[113.5595,22.735]]],[[[113.5292,22.9486],[113.5536,22.9113],[113.545,22.88],[113.51,22.9212],[113.5292,22.9486]]],[[[117.0051,23.5629],[116.971,23.5146],[116.9373,23.5263],[116.9744,23.5594],[117.0051,23.5629]]],[[[119.561,25.2086],[119.529,25.1654],[119.4447,25.2291],[119.4704,25.2522],[119.561,25.2086]]],[[[119.346,25.5611],[119.335,25.438],[119.2969,25.4229],[119.2815,25.4829],[119.346,25.5611]]],[[[119.5994,26.1281],[119.6204,26.0642],[119.554,26.0956],[119.5994,26.1281]]],[[[120.3185,26.9486],[120.3509,26.9712],[120.3857,26.9352],[120.3525,26.9238],[120.3185,26.9486]]],[[[121.0461,27.4652],[121.1034,27.4519],[121.0673,27.4368],[121.0461,27.4652]]],[[[121.1885,27.8637],[121.1712,27.8188],[121.098,27.8178],[121.114,27.8441],[121.1885,27.8637]]],[[[121.0447,27.952],[121.0702,27.9829],[121.1397,27.9658],[121.1033,27.9462],[121.0447,27.952]]],[[[121.8646,29.1238],[121.8421,29.095],[121.7827,29.1247],[121.7898,29.1498],[121.8646,29.1238]]],[[[122.312,29.829],[122.2956,29.7791],[122.2317,29.8362],[122.312,29.829]]],[[[121.96,29.9532],[121.9741,29.8998],[121.9336,29.9213],[121.96,29.9532]]],[[[122.4077,30.2659],[122.2776,30.2355],[122.324,30.2722],[122.4077,30.2659]]],[[[122.5264,30.7142],[122.432,30.698],[122.4299,30.7431],[122.4729,30.7172],[122.5264,30.7142]]],[[[121.6913,31.4192],[121.7664,31.3206],[121.5845,31.4414],[121.6913,31.4192]]],[[[118.6487,39.0559],[118.5943,38.9722],[118.4803,38.9348],[118.4882,39.0505],[118.5597,39.0031],[118.6487,39.0559]]]]}},{"type":"Feature","properties":{"source_index":24},"geometry":{"type":"MultiPolygon","coordinates":[[[[128.3649,38.6243],[128.6316,38.145],[129.0642,37.6789],[129.4302,37.0731],[129.4739,36.7306],[129.4226,36.6166],[129.4409,36.4079],[129.3866,36.3227],[129.4305,36.0974],[129.3809,36.0415],[129.4533,35.9933],[129.5548,36.0825],[129.5873,36.0169],[129.4431,35.6361],[129.4546,35.5133],[129.4129,35.4721],[129.3735,35.5328],[129.3604,35.3536],[129.2692,35.3168],[129.1943,35.1555],[129.1203,35.1496],[129.1011,35.0923],[129.0638,35.1208],[129.0004,35.0459],[128.9584,35.0504],[128.958,35.1369],[128.9184,35.0819],[128.8979,35.1213],[128.8822,35.0815],[128.7004,35.0961],[128.6963,35.1435],[128.6179,35.1433],[128.6021,35.2139],[128.5779,35.1787],[128.6521,35.0613],[128.4781,35.0991],[128.3714,35.0136],[128.4881,35.0512],[128.4915,34.9959],[128.42,34.9827],[128.433,34.8907],[128.4745,34.8907],[128.4353,34.8432],[128.3408,34.8727],[128.3351,34.9473],[128.3023,34.908],[128.2241,34.9379],[128.207,34.8907],[128.0557,34.9316],[128.0693,35.0825],[128.0068,34.9918],[127.9258,35.0198],[127.8912,34.9467],[127.7192,34.9901],[127.6621,34.9068],[127.5916,34.9464],[127.5753,34.9136],[127.6565,34.8119],[127.7756,34.8491],[127.7415,34.7256],[127.6243,34.6982],[127.6407,34.618],[127.5608,34.6622],[127.5845,34.7462],[127.5213,34.8898],[127.4839,34.8395],[127.3653,34.824],[127.4255,34.8007],[127.3579,34.7597],[127.5036,34.5913],[127.3494,34.5858],[127.4392,34.5407],[127.3278,34.4739],[127.3436,34.445],[127.2235,34.5468],[127.1792,34.5133],[127.1245,34.5407],[127.2134,34.6369],[127.1929,34.5748],[127.2467,34.5837],[127.2747,34.7051],[127.3145,34.6519],[127.3579,34.6982],[127.2481,34.7665],[127.1997,34.6915],[127.0103,34.6125],[126.898,34.4177],[126.8098,34.4512],[126.7778,34.5865],[126.7269,34.433],[126.6336,34.3957],[126.6033,34.3004],[126.5213,34.2942],[126.5274,34.3414],[126.4796,34.3488],[126.5176,34.4138],[126.4659,34.4724],[126.5418,34.5133],[126.5396,34.563],[126.3909,34.5338],[126.2953,34.5891],[126.2903,34.7502],[126.3567,34.6982],[126.3699,34.6089],[126.4646,34.5847],[126.4161,34.6527],[126.3861,34.6358],[126.3786,34.7112],[126.5357,34.6232],[126.5191,34.6504],[126.6027,34.6255],[126.6236,34.63],[126.5084,34.7185],[126.364,34.7492],[126.4601,34.7788],[126.5349,34.746],[126.5444,34.7957],[126.6653,34.8081],[126.5758,34.8218],[126.5676,34.9014],[126.5133,34.7823],[126.3735,34.7907],[126.4364,34.9814],[126.3152,34.9379],[126.3015,34.9726],[126.3741,35.0168],[126.3206,35.0833],[126.2883,35.053],[126.2542,35.1234],[126.343,35.157],[126.4251,35.0198],[126.4524,35.1003],[126.3635,35.2395],[126.3089,35.2333],[126.3773,35.2526],[126.4114,35.3699],[126.4585,35.3454],[126.4182,35.394],[126.4927,35.5253],[126.6429,35.5728],[126.6925,35.5344],[126.6702,35.5887],[126.5132,35.5769],[126.4676,35.6396],[126.6622,35.793],[126.782,35.7602],[126.7034,35.8485],[126.8375,35.8933],[126.6123,35.8902],[126.5214,35.9705],[126.7445,35.9896],[126.8707,36.062],[126.6925,35.9999],[126.5894,36.1308],[126.4934,36.1308],[126.6033,36.1718],[126.5349,36.2196],[126.5826,36.2947],[126.5138,36.3227],[126.5826,36.353],[126.4988,36.4201],[126.6174,36.4735],[126.4977,36.4484],[126.5139,36.5288],[126.4577,36.5956],[126.5199,36.6262],[126.4796,36.7471],[126.4242,36.6066],[126.3671,36.6291],[126.343,36.7404],[126.3015,36.6994],[126.343,36.61],[126.2953,36.5827],[126.2742,36.7199],[126.1777,36.6732],[126.157,36.7021],[126.2134,36.7267],[126.1582,36.7608],[126.1328,36.7038],[126.1282,36.7613],[126.1656,36.8161],[126.2134,36.7813],[126.1922,36.8086],[126.24,36.8161],[126.1987,36.8232],[126.1922,36.8859],[126.2752,36.8747],[126.3089,36.9669],[126.2827,36.8037],[126.3567,36.7888],[126.3287,36.847],[126.4046,36.857],[126.3773,36.8769],[126.4192,36.9223],[126.353,37.0],[126.4454,37.0034],[126.4839,36.8415],[126.5191,36.9479],[126.5826,36.898],[126.4934,36.997],[126.5721,36.9775],[126.5007,37.055],[126.6261,36.9961],[126.6311,36.9116],[126.6815,36.9947],[126.7962,36.9558],[126.782,36.8912],[126.8302,36.9102],[126.8508,36.754],[126.8633,36.8291],[126.9048,36.8223],[126.8602,36.8696],[126.9895,36.9186],[127.042,36.9936],[126.9127,36.9296],[126.8244,37.0026],[126.911,37.0141],[126.8905,37.0959],[126.8491,37.0373],[126.7552,37.0488],[126.7645,37.1177],[126.8645,37.1791],[126.6856,37.1301],[126.7069,37.1649],[126.6653,37.1755],[126.719,37.2129],[126.6585,37.2543],[126.782,37.2202],[126.8192,37.2744],[126.8707,37.2679],[126.6898,37.3325],[126.7172,37.3838],[126.6151,37.3797],[126.6386,37.4138],[126.595,37.4723],[126.6442,37.5044],[126.6011,37.5068],[126.5349,37.7682],[126.6619,37.758],[126.6615,37.6724],[126.7552,37.6379],[126.6788,37.6863],[126.6658,37.9376],[127.0905,38.2859],[128.0399,38.3043],[128.2487,38.4258],[128.2811,38.5844],[128.3649,38.6243]]],[[[126.3412,36.6041],[126.4321,36.4079],[126.3638,36.4114],[126.3638,36.4735],[126.3281,36.4711],[126.3412,36.6041]]],[[[126.315,37.8027],[126.3182,37.7623],[126.2245,37.7604],[126.2464,37.8118],[126.315,37.8027]]],[[[126.9536,33.465],[126.8406,33.3102],[126.6069,33.2406],[126.3334,33.2382],[126.27,33.1976],[126.1611,33.3008],[126.3106,33.4645],[126.4849,33.5208],[126.7924,33.5638],[126.9536,33.465]]],[[[127.2043,34.4868],[127.2287,34.4302],[127.1174,34.4376],[127.1244,34.4733],[127.2043,34.4868]]],[[[126.3816,34.4847],[126.3459,34.409],[126.21,34.3588],[126.1033,34.4028],[126.2683,34.522],[126.2477,34.5748],[126.3495,34.5468],[126.3816,34.4847]]],[[[127.7625,34.7128],[127.8181,34.6162],[127.7866,34.579],[127.7358,34.6252],[127.7625,34.7128]]],[[[125.9767,34.7283],[125.9769,34.6564],[125.916,34.6876],[125.9767,34.7283]]],[[[126.0076,34.7597],[125.9181,34.7182],[125.8926,34.7366],[125.9251,34.7808],[126.0076,34.7597]]],[[[126.0603,34.9269],[126.0807,34.871],[125.9865,34.8627],[126.0143,34.8996],[126.0603,34.9269]]],[[[128.0747,34.8037],[128.0559,34.6982],[127.9753,34.6999],[127.9377,34.767],[127.8921,34.7127],[127.8294,34.869],[127.9172,34.9362],[127.9199,34.8354],[128.0747,34.8037]]],[[[128.7029,35.0329],[128.7417,34.7907],[128.6864,34.8081],[128.6629,34.77],[128.6939,34.7362],[128.584,34.7051],[128.6182,34.7256],[128.5604,34.7818],[128.6045,34.8354],[128.5288,34.8081],[128.4885,34.869],[128.6455,34.8907],[128.6106,34.9549],[128.7029,35.0329]]],[[[126.1052,35.05],[126.056,35.0613],[126.0691,35.1024],[126.1652,35.1435],[126.1052,35.05]]],[[[126.5672,37.5112],[126.4434,37.4206],[126.3555,37.4662],[126.5148,37.5343],[126.5672,37.5112]]],[[[130.9207,37.5356],[130.8967,37.4631],[130.811,37.487],[130.8323,37.5321],[130.9207,37.5356]]],[[[126.32,37.7472],[126.3499,37.6574],[126.282,37.6993],[126.32,37.7472]]],[[[126.5002,37.5962],[126.3701,37.631],[126.4167,37.6518],[126.367,37.7272],[126.4071,37.8207],[126.5164,37.7672],[126.542,37.631],[126.5002,37.5962]]],[[[124.7437,37.9697],[124.6849,37.92],[124.6136,37.9451],[124.624,37.9805],[124.7437,37.9697]]],[[[127.2957,34.0615],[127.2957,34.0141],[127.28,34.0574],[127.2957,34.0615]]],[[[127.5364,34.4407],[127.4946,34.4143],[127.4534,34.4706],[127.5099,34.47],[127.5364,34.4407]]],[[[127.7481,34.5511],[127.7712,34.4882],[127.7075,34.5339],[127.7481,34.5511]]],[[[126.0601,34.6208],[126.0994,34.5587],[126.0352,34.5339],[126.0813,34.5808],[126.0601,34.6208]]],[[[126.0286,34.5659],[126.0166,34.6061],[126.0286,34.6342],[126.0604,34.5843],[126.0286,34.5659]]],[[[125.4573,34.6909],[125.4126,34.6323],[125.3988,34.632],[125.4129,34.692],[125.4573,34.6909]]],[[[126.1775,34.7241],[126.1113,34.7177],[126.0696,34.7697],[126.1636,34.755],[126.1775,34.7241]]],[[[126.1494,34.8081],[126.1463,34.7619],[126.0925,34.7876],[126.1494,34.8081]]],[[[126.0711,34.8322],[126.1228,34.8788],[126.152,34.8712],[126.1159,34.8031],[126.0711,34.8322]]],[[[128.0768,34.8425],[127.9873,34.8381],[127.9636,34.8598],[128.0178,34.9166],[128.0134,34.8691],[128.0459,34.8936],[128.0768,34.8425]]],[[[126.2502,34.9188],[126.2224,34.932],[126.2532,34.9335],[126.2502,34.9188]]],[[[126.1438,35.0577],[126.1724,35.0236],[126.1278,35.0482],[126.1438,35.0577]]],[[[128.8364,35.0598],[128.8267,34.9924],[128.8044,35.0563],[128.8364,35.0598]]],[[[126.2537,35.5744],[126.2761,35.6129],[126.3073,35.6166],[126.3057,35.6032],[126.2537,35.5744]]],[[[126.1216,37.2109],[126.1047,37.2675],[126.1592,37.2319],[126.1216,37.2109]]],[[[126.4944,37.2735],[126.4695,37.2335],[126.4357,37.2384],[126.4435,37.2731],[126.4944,37.2735]]],[[[126.543,37.285],[126.6135,37.2328],[126.5393,37.1981],[126.543,37.285]]],[[[125.6804,37.6783],[125.7031,37.6614],[125.6878,37.6518],[125.6804,37.6783]]],[[[124.7245,37.8437],[124.7142,37.8096],[124.6846,37.8],[124.6765,37.8249],[124.7245,37.8437]]],[[[125.1364,34.0593],[125.0921,34.0718],[125.1022,34.0959],[125.1364,34.0593]]],[[[126.6077,34.1656],[126.5369,34.1265],[126.5071,34.1389],[126.5329,34.1791],[126.6077,34.1656]]],[[[126.6707,34.1899],[126.6387,34.1281],[126.6453,34.1972],[126.6707,34.1899]]],[[[126.8679,34.2075],[126.9136,34.1577],[126.8532,34.159],[126.8679,34.2075]]],[[[126.6162,34.2133],[126.5838,34.1756],[126.5498,34.1912],[126.5597,34.2345],[126.6162,34.2133]]],[[[126.0877,34.2968],[126.0493,34.2802],[126.021,34.3011],[126.0332,34.3149],[126.0877,34.2968]]],[[[126.8933,34.3413],[126.8206,34.3256],[126.7576,34.3361],[126.8933,34.3413]]],[[[127.095,34.3425],[127.0388,34.3129],[126.9915,34.3563],[127.0254,34.3813],[127.095,34.3425]]],[[[126.7659,34.303],[126.689,34.3011],[126.6458,34.3856],[126.71,34.3929],[126.7659,34.303]]],[[[126.7757,34.3547],[126.823,34.4398],[126.8611,34.3928],[126.7757,34.3547]]],[[[128.2971,34.6373],[128.2363,34.6105],[128.2253,34.6328],[128.2395,34.6524],[128.2971,34.6373]]],[[[128.332,34.8257],[128.438,34.8196],[128.4231,34.7633],[128.332,34.8257]]],[[[128.2273,34.8386],[128.2385,34.7969],[128.2058,34.8156],[128.2273,34.8386]]],[[[126.3596,34.8586],[126.3421,34.8225],[126.2307,34.8546],[126.2974,34.9175],[126.3596,34.8586]]],[[[126.2611,35.0246],[126.1848,35.0627],[126.1587,35.0942],[126.236,35.0984],[126.2611,35.0246]]],[[[131.861,37.244],[131.8617,37.2416],[131.8601,37.2424],[131.861,37.244]]]]}},{"type":"Feature","properties":{"source_index":25},"geometry":{"type":"MultiPolygon","coordinates":[[[[128.3084,38.6013],[128.2256,38.3998],[128.0399,38.3043],[127.0905,38.2859],[126.6658,37.9376],[126.6675,37.8278],[126.5933,37.7744],[126.3977,37.8918],[126.1785,37.8405],[126.1582,37.7335],[126.1104,37.7409],[126.0558,37.8706],[126.0128,37.8543],[125.9595,37.9122],[125.9862,37.8228],[125.9216,37.8449],[125.7993,37.9929],[125.5969,38.0322],[125.5965,37.9923],[125.7398,37.9252],[125.6306,37.9252],[125.6201,37.7653],[125.5276,37.7961],[125.3475,37.6756],[125.3638,37.7609],[125.4449,37.7744],[125.3899,37.7961],[125.5242,37.8178],[125.4791,37.8576],[125.5101,37.8943],[125.4244,37.9122],[125.3836,37.8918],[125.4449,37.8433],[125.3494,37.8644],[125.3773,37.8433],[125.3084,37.8091],[125.2395,37.8228],[125.3084,37.8781],[125.26,37.9327],[125.1766,37.8676],[124.9795,37.9252],[125.062,37.9786],[125.1754,37.9699],[125.1067,38.0346],[125.2463,38.0201],[125.2649,38.0779],[125.0135,38.0624],[124.8853,38.1317],[124.7938,38.0978],[124.6672,38.1257],[124.856,38.227],[124.9209,38.1894],[124.993,38.227],[124.8723,38.2576],[124.8797,38.3452],[125.0164,38.498],[124.9839,38.5919],[125.128,38.5803],[125.1234,38.6663],[125.1566,38.6317],[125.1798,38.67],[125.4627,38.7073],[125.6578,38.631],[125.4478,38.7772],[125.4193,38.7293],[125.2777,38.7033],[125.241,38.7931],[125.1881,38.7386],[125.1372,38.8035],[125.1986,38.9861],[125.2708,39.0806],[125.3351,39.0834],[125.2841,39.0896],[125.2874,39.1523],[125.4109,39.2138],[125.4449,39.3106],[125.4046,39.3647],[125.4592,39.3851],[125.3425,39.4335],[125.4518,39.5713],[125.286,39.5212],[125.2252,39.5912],[125.117,39.5659],[124.7461,39.7829],[124.7439,39.6444],[124.6375,39.5905],[124.647,39.6976],[124.5848,39.7236],[124.5641,39.8143],[124.4177,39.8245],[124.3215,39.9127],[124.4058,40.0278],[124.4996,40.0225],[124.4102,40.0362],[124.37,40.0983],[124.7125,40.3103],[124.8955,40.4836],[125.0413,40.4611],[125.0251,40.5344],[125.2933,40.6486],[125.4133,40.6318],[125.5717,40.7849],[125.6826,40.7689],[125.6448,40.8106],[125.7609,40.8857],[126.0078,40.8993],[125.9806,40.9136],[126.1238,41.0755],[126.2748,41.1526],[126.4409,41.3484],[126.5221,41.3519],[126.5013,41.4344],[126.567,41.6142],[126.728,41.7013],[126.6795,41.736],[126.7886,41.6959],[126.9298,41.801],[127.0427,41.7326],[127.059,41.6433],[127.1797,41.5852],[127.1047,41.5374],[127.1346,41.522],[127.5429,41.4913],[127.6383,41.4299],[128.0014,41.4709],[128.0152,41.4133],[128.1461,41.3763],[128.303,41.5834],[128.0478,41.864],[128.0346,41.9937],[128.9401,42.0354],[128.9638,42.0885],[129.2112,42.22],[129.1808,42.2431],[129.228,42.2977],[129.1939,42.3182],[129.3401,42.4455],[129.4341,42.4411],[129.5352,42.3696],[129.5917,42.448],[129.7033,42.4424],[129.7876,42.6769],[129.7573,42.7347],[129.8517,42.9619],[129.907,42.9761],[129.8798,42.996],[130.1215,42.9818],[130.0988,42.9215],[130.239,42.9022],[130.2627,42.7086],[130.4525,42.5493],[130.4678,42.6004],[130.5165,42.5994],[130.7,42.2951],[130.5975,42.2628],[130.5102,42.3358],[130.4075,42.3246],[130.4009,42.2425],[130.2023,42.1736],[130.1594,42.0728],[130.073,42.0785],[129.9647,41.8987],[129.8967,41.9043],[129.8525,41.7649],[129.7748,41.7594],[129.6908,41.6497],[129.6594,41.4646],[129.8062,41.376],[129.7119,41.1226],[129.7649,40.9444],[129.7166,40.8346],[129.5718,40.8397],[129.3517,40.7453],[129.3032,40.6737],[129.2335,40.7057],[129.0776,40.4726],[128.6365,40.3132],[128.6164,40.2714],[128.6678,40.2403],[128.6289,40.1803],[128.3648,40.0969],[128.3278,40.0282],[128.2634,40.0771],[128.1551,40.0163],[128.0068,40.0452],[127.9067,39.9839],[127.8746,39.8928],[127.6633,39.8068],[127.6237,39.8309],[127.5038,39.7155],[127.5746,39.595],[127.5204,39.5105],[127.5621,39.3162],[127.5218,39.3162],[127.5422,39.3715],[127.4951,39.4334],[127.3784,39.3789],[127.4734,39.3476],[127.3919,39.3419],[127.3934,39.2017],[127.7593,39.117],[128.0147,38.8581],[128.0912,38.8437],[128.2102,38.7277],[128.2828,38.7551],[128.3477,38.6967],[128.3649,38.6243],[128.3084,38.6013]]],[[[124.8805,39.6125],[124.9336,39.5505],[124.8186,39.4954],[124.8805,39.6125]]],[[[124.8442,38.5552],[124.904,38.4944],[124.7903,38.5174],[124.8442,38.5552]]],[[[125.3377,37.7687],[125.261,37.7074],[125.2206,37.7038],[125.2795,37.7494],[125.3377,37.7687]]],[[[125.1563,37.7867],[125.1662,37.8137],[125.1914,37.8155],[125.1563,37.7867]]],[[[125.0285,37.8188],[125.0418,37.8173],[124.9977,37.8084],[125.0285,37.8188]]],[[[124.682,39.5212],[124.7048,39.5087],[124.6846,39.5032],[124.682,39.5212]]],[[[124.6913,39.5696],[124.6448,39.5477],[124.5959,39.5379],[124.6913,39.5696]]],[[[124.6021,39.4274],[124.6126,39.4571],[124.6191,39.433],[124.6021,39.4274]]],[[[124.2232,39.7916],[124.23,39.8212],[124.2428,39.8046],[124.2232,39.7916]]]]}},{"type":"Feature","properties":{"source_index":46},"geometry":{"type":"Polygon","coordinates":[[[116.6843,49.8233],[116.0378,48.8701],[116.0282,48.7675],[115.7912,48.5138],[115.8,48.2423],[115.5142,48.1316],[115.5999,47.8874],[115.9145,47.6839],[116.2439,47.8629],[116.4997,47.8364],[116.822,47.8763],[117.0697,47.8102],[117.3608,47.6509],[117.7669,47.9931],[118.1825,48.0282],[118.4728,47.9894],[118.7674,47.7562],[119.0835,47.6616],[119.1339,47.5275],[119.3101,47.4761],[119.2819,47.4149],[119.7,47.1595],[119.7701,46.993],[119.8964,46.8986],[119.9042,46.7089],[119.6801,46.5916],[119.0624,46.661],[118.9672,46.7405],[118.9071,46.7094],[118.8465,46.7655],[118.7201,46.6767],[118.269,46.7229],[117.9006,46.6076],[117.7976,46.5203],[117.6734,46.516],[117.5682,46.6035],[117.3938,46.5714],[117.3375,46.3573],[116.8146,46.3867],[116.5683,46.2909],[116.2132,45.9082],[116.2516,45.8033],[116.1699,45.7091],[116.0021,45.6756],[115.6674,45.4543],[115.3373,45.3947],[114.9389,45.3738],[114.7033,45.4272],[114.5337,45.3855],[114.4189,45.2015],[114.0893,44.9618],[113.8893,44.9083],[113.6048,44.7397],[112.7485,44.8653],[112.586,44.9238],[112.4128,45.066],[111.9734,45.087],[111.8433,45.0395],[111.7385,44.9663],[111.5514,44.6932],[111.5382,44.5834],[111.3964,44.3466],[111.4906,44.2826],[111.6345,44.0659],[111.8388,43.9388],[111.9443,43.7864],[111.9334,43.6966],[111.7538,43.6632],[111.5677,43.5025],[110.9734,43.3156],[110.4067,42.7686],[109.6673,42.549],[109.4851,42.4493],[108.9613,42.4475],[108.7969,42.3984],[108.1774,42.4543],[106.7678,42.2866],[105.2009,41.7435],[104.9738,41.5861],[104.8923,41.6448],[104.5049,41.6566],[104.5008,41.8706],[104.0,41.7967],[104.0,50.1457],[104.1981,50.17],[104.4058,50.3005],[105.1058,50.3901],[105.3286,50.4765],[105.9849,50.3998],[106.0559,50.3336],[106.2223,50.2924],[106.6565,50.327],[106.9737,50.1964],[107.0571,50.0741],[107.1922,50.006],[107.9465,49.9335],[107.9274,49.67],[108.0158,49.6557],[108.0157,49.6022],[108.1062,49.5543],[108.2364,49.5325],[108.5381,49.3274],[109.2867,49.3385],[109.5162,49.2559],[109.7285,49.2665],[110.1814,49.162],[110.3712,49.2418],[110.6881,49.1345],[111.3385,49.3647],[111.4791,49.3433],[111.661,49.3964],[112.0302,49.4119],[112.4733,49.5341],[112.7771,49.5014],[113.0608,49.596],[113.1827,49.802],[113.5797,50.0199],[113.8498,50.0807],[114.2863,50.2769],[114.7537,50.2362],[114.9974,50.1443],[115.3878,49.8911],[115.7163,49.8778],[116.1354,50.0144],[116.5754,49.9218],[116.6843,49.8233]]]}},{"type":"Feature","properties":{"source_index":47},"geometry":{"type":"MultiPolygon","coordinates":[[[[159.9015,53.9819],[159.8441,53.7969],[159.8667,53.6945],[159.8182,53.6597],[159.9146,53.5908],[159.8729,53.6665],[159.9307,53.6451],[159.9605,53.4968],[159.9202,53.4756],[159.825,53.5362],[159.7966,53.4815],[159.9356,53.3928],[159.9281,53.3376],[159.9754,53.3316],[159.9146,53.2686],[159.9692,53.2147],[160.0176,53.2652],[160.0586,53.0974],[159.7715,53.2036],[159.825,53.2829],[159.1638,53.1349],[158.7087,52.8918],[158.5916,53.0622],[158.4378,53.0253],[158.4356,52.9197],[158.5304,52.9056],[158.5062,52.9475],[158.6471,52.8994],[158.4998,52.779],[158.5994,52.7138],[158.5647,52.6474],[158.5004,52.6213],[158.4212,52.6591],[158.4273,52.5938],[158.5236,52.5704],[158.5304,52.4879],[158.4212,52.4121],[158.5435,52.4207],[158.5713,52.3917],[158.5032,52.3581],[158.5579,52.3131],[158.3901,52.2262],[158.427,52.1843],[158.319,52.1303],[158.2869,51.9675],[158.0148,51.766],[157.9133,51.6313],[157.5369,51.4861],[157.4757,51.3615],[157.3517,51.3297],[156.67,50.8639],[156.7619,50.9844],[156.7615,51.078],[156.7081,51.0877],[156.7219,51.1955],[156.5236,51.3115],[156.4392,52.216],[156.2822,52.5294],[156.3709,52.4901],[156.3723,52.4468],[156.4466,52.5114],[156.2657,52.5982],[156.1112,52.9354],[155.8882,54.0],[159.9015,53.9819]]],[[[136.6873,53.9924],[136.6771,53.8207],[136.7752,53.7731],[136.9578,53.8577],[137.1428,53.8139],[137.2714,54.0],[137.8628,53.9676],[137.6091,53.8344],[137.488,53.6706],[137.3454,53.6647],[137.2117,53.5877],[137.3705,53.5275],[137.9182,53.5866],[138.1501,53.6728],[138.2842,53.7385],[138.3664,53.9095],[138.5786,53.9993],[138.5799,53.8283],[138.2461,53.5664],[138.2156,53.4918],[138.5278,53.5642],[138.6558,53.7318],[138.6825,53.8754],[138.7675,54.0],[140.238,54.0],[140.3308,53.9703],[140.2573,53.8686],[140.5217,53.727],[140.5812,53.6393],[141.0978,53.4748],[140.9497,53.489],[140.9309,53.4363],[140.9954,53.4484],[141.2293,53.316],[141.4075,53.3038],[141.3578,53.2209],[141.424,53.2178],[141.433,53.1489],[141.3644,53.0734],[141.1864,53.0502],[141.2616,53.0359],[141.1888,52.9875],[140.8607,53.1185],[140.7067,53.111],[140.9334,53.0316],[140.9661,52.9446],[141.0825,52.884],[141.2606,52.8522],[141.201,52.7774],[141.3163,52.6591],[141.1282,52.4229],[141.4021,52.2255],[141.5401,52.2208],[141.5558,52.1623],[141.355,52.1059],[141.3026,52.0217],[141.4255,51.9255],[141.2002,51.8237],[141.1092,51.6788],[140.9153,51.6238],[140.9014,51.4941],[140.8001,51.4542],[140.8189,51.4167],[140.896,51.4288],[140.8738,51.3718],[140.6863,51.3128],[140.7136,51.2614],[140.6589,51.2238],[140.7067,51.0317],[140.6736,50.9483],[140.5298,50.8624],[140.5422,50.8051],[140.4634,50.699],[140.5149,50.6171],[140.4421,50.5301],[140.5454,50.3441],[140.523,50.1511],[140.6006,50.0752],[140.6909,50.0803],[140.4823,49.9753],[140.4152,49.8746],[140.535,49.7774],[140.5075,49.6916],[140.5608,49.5754],[140.4543,49.4208],[140.4356,49.2944],[140.3359,49.2875],[140.3902,49.2751],[140.3457,49.2292],[140.3565,49.0958],[140.2949,49.0883],[140.3436,49.0471],[140.2192,49.0139],[140.2813,48.9654],[140.3591,49.0213],[140.398,48.9927],[140.213,48.7674],[140.177,48.4618],[139.2617,47.7879],[138.9695,47.3175],[138.8907,47.3052],[138.5628,47.0299],[138.3491,46.6643],[138.3446,46.5487],[138.2024,46.4543],[138.034,46.156],[137.6715,45.7946],[137.3967,45.6239],[137.1445,45.3747],[136.8108,45.1932],[136.78,45.1079],[136.5582,44.9483],[136.4436,44.7851],[136.3546,44.7888],[136.1653,44.4965],[135.8379,44.3627],[135.8194,44.2906],[135.6559,44.1687],[135.624,44.0385],[135.5413,44.004],[135.512,43.9217],[135.4636,43.9497],[135.4636,43.8944],[135.5188,43.8808],[135.4258,43.7632],[135.2754,43.689],[135.2356,43.7341],[135.1822,43.7106],[135.2239,43.6446],[135.1284,43.5006],[134.1937,43.0798],[133.9268,42.8827],[133.8396,42.8976],[133.7173,42.8166],[133.5934,42.8529],[133.1577,42.6884],[133.0244,42.6994],[132.9963,42.7226],[133.0789,42.7498],[132.9898,42.827],[132.8159,42.7564],[132.7573,42.8324],[132.7634,42.9081],[132.5779,42.8404],[132.5027,42.9243],[132.4044,42.9423],[132.3115,42.8454],[132.2911,43.0856],[132.3817,43.1912],[132.3077,43.2382],[132.3458,43.2979],[132.2896,43.3126],[132.2267,43.2298],[131.9299,43.0696],[131.8865,43.0856],[131.9207,43.1204],[131.8499,43.1005],[132.052,43.3148],[131.9684,43.2706],[131.8157,43.3367],[131.7227,43.2098],[131.7639,43.1859],[131.647,43.1688],[131.6947,43.175],[131.565,42.9963],[131.4995,43.0],[131.4961,42.9423],[131.3939,42.945],[131.4004,42.8734],[131.4717,42.8732],[131.352,42.7743],[131.2731,42.7773],[131.2012,42.614],[131.2195,42.5547],[131.1203,42.6672],[130.8897,42.5996],[130.8155,42.6342],[130.9321,42.6184],[130.9497,42.6531],[130.787,42.6538],[130.8255,42.6993],[130.6567,42.6641],[130.7295,42.5792],[130.7742,42.5968],[130.8729,42.5277],[130.7866,42.4619],[130.7036,42.2952],[130.5308,42.5305],[130.5845,42.5689],[130.5719,42.6218],[130.3797,42.6967],[130.5865,42.8173],[130.7943,42.8691],[130.9924,42.8487],[131.103,42.9104],[131.0783,43.0318],[131.184,43.1208],[131.1691,43.2017],[131.2809,43.3802],[131.2743,43.4512],[131.1607,43.5328],[131.2067,43.9748],[131.2645,44.0542],[131.0658,44.682],[130.9334,44.8417],[131.0516,44.909],[131.4338,44.9613],[131.6091,45.0897],[131.6278,45.1985],[131.7232,45.2153],[131.8531,45.3376],[131.9688,45.234],[132.9212,45.0279],[133.0988,45.1078],[133.1019,45.2872],[133.1798,45.4938],[133.4773,45.6277],[133.4878,45.6867],[133.443,45.7097],[133.5114,45.7786],[133.4773,45.8201],[133.5144,45.8793],[133.6581,45.9345],[133.72,46.0638],[133.6874,46.1418],[133.9025,46.259],[133.916,46.313],[133.8634,46.3393],[133.9339,46.3908],[133.8458,46.4707],[134.0148,46.665],[134.0692,46.9812],[134.1242,47.0705],[134.2273,47.1177],[134.1541,47.2579],[134.1836,47.3275],[134.3129,47.4201],[134.5569,47.4712],[134.7726,47.7107],[134.5594,48.0095],[134.683,48.1355],[134.7187,48.2634],[134.3863,48.3813],[133.7379,48.2511],[133.5244,48.0954],[133.092,48.1068],[132.8059,47.9362],[132.6746,47.9506],[132.668,47.8813],[132.5247,47.7075],[132.3324,47.7365],[131.6033,47.6615],[131.4409,47.7412],[131.1039,47.6765],[130.9657,47.7039],[130.907,47.8843],[130.6747,48.0639],[130.6747,48.1359],[130.824,48.2942],[130.7433,48.4116],[130.759,48.4857],[130.6264,48.4823],[130.6202,48.5605],[130.5297,48.6163],[130.6743,48.8708],[130.2018,48.8826],[129.9265,49.0257],[129.9207,49.0819],[129.7418,49.1957],[129.7112,49.2742],[129.5518,49.2905],[129.4806,49.4213],[129.3787,49.425],[129.341,49.3412],[129.2179,49.3908],[129.1154,49.3488],[128.9982,49.4413],[128.7601,49.4709],[128.8017,49.5651],[128.6719,49.6114],[128.1983,49.539],[127.9679,49.6032],[127.8547,49.5849],[127.7036,49.6606],[127.6443,49.7671],[127.5387,49.7899],[127.4867,50.0256],[127.5906,50.2087],[127.3307,50.3282],[127.3585,50.4151],[127.289,50.466],[127.3671,50.5778],[127.289,50.6752],[127.2874,50.751],[126.9318,51.0638],[126.9052,51.2081],[126.9722,51.324],[126.8994,51.3165],[126.8699,51.2517],[126.809,51.2891],[126.9094,51.3911],[126.8003,51.419],[126.8074,51.5342],[126.6769,51.5766],[126.7256,51.7087],[126.6479,51.7413],[126.4393,51.9979],[126.556,52.1306],[126.3167,52.1998],[126.4393,52.2753],[126.3157,52.3162],[126.3507,52.3769],[126.276,52.4633],[126.2003,52.4671],[126.2123,52.533],[125.9908,52.5864],[125.9828,52.653],[126.0686,52.6799],[126.0351,52.7271],[126.088,52.7754],[125.9769,52.765],[125.8374,52.9067],[125.6465,52.8849],[125.7335,52.9817],[125.6214,53.0621],[125.5213,53.0424],[125.0737,53.2122],[124.8977,53.1855],[124.8701,53.108],[124.6516,53.2088],[124.3837,53.2461],[124.2531,53.3755],[124.1218,53.3527],[123.9706,53.4552],[123.6143,53.5633],[123.5419,53.5141],[123.5144,53.5624],[123.4815,53.5181],[123.2526,53.5678],[123.1536,53.5131],[122.8597,53.4739],[122.4016,53.4509],[122.3168,53.496],[121.2035,53.2767],[120.8457,53.2734],[120.2802,52.8659],[120.033,52.7607],[120.0338,52.6254],[120.0794,52.59],[120.454,52.639],[120.724,52.5422],[120.6262,52.3468],[120.7581,52.2374],[120.7792,52.1176],[120.6973,52.0487],[120.7109,51.9883],[120.6476,51.911],[120.4931,51.8757],[120.1005,51.6599],[119.9529,51.3977],[119.8953,51.384],[119.9157,51.3307],[119.8196,51.2747],[119.815,51.2159],[119.7622,51.215],[119.7408,51.0715],[119.518,50.9048],[119.4967,50.7371],[119.2936,50.5992],[119.2437,50.4455],[119.1376,50.3925],[119.3566,50.3408],[119.3286,50.1081],[119.1896,50.0073],[118.6444,49.9546],[117.8738,49.5132],[117.0576,49.6729],[116.7223,49.8017],[116.5754,49.9218],[116.2176,50.0138],[115.7163,49.8778],[115.3878,49.8911],[114.9974,50.1443],[114.7537,50.2362],[114.2863,50.2769],[113.8498,50.0807],[113.5797,50.0199],[113.1827,49.802],[113.0608,49.596],[112.7771,49.5014],[112.4733,49.5341],[112.0302,49.4119],[111.661,49.3964],[111.4791,49.3433],[111.3385,49.3647],[110.6881,49.1345],[110.3712,49.2418],[110.1814,49.162],[109.7285,49.2665],[109.5162,49.2559],[109.2867,49.3385],[108.5381,49.3274],[108.2364,49.5325],[108.1062,49.5543],[108.0157,49.6022],[108.0158,49.6557],[107.9274,49.67],[107.9465,49.9335],[107.1922,50.006],[107.0571,50.0741],[106.9737,50.1964],[106.6565,50.327],[106.2223,50.2924],[106.0559,50.3336],[105.9849,50.3998],[105.3286,50.4765],[105.1058,50.3901],[104.4058,50.3005],[104.1981,50.17],[104.0,50.1457],[104.0,54.0],[136.6873,53.9924]]],[[[131.9225,43.0089],[131.8833,42.9608],[131.757,42.9901],[131.7775,43.0446],[131.8594,43.0373],[131.8265,43.0652],[131.9225,43.0089]]],[[[142.9375,53.9909],[142.8518,53.872],[142.9338,53.8577],[143.0021,53.7006],[142.9268,53.8298],[142.9065,53.7668],[143.0293,53.6461],[142.9959,53.6256],[143.0708,53.5982],[142.9885,53.5629],[143.1211,53.5181],[143.1255,53.4679],[143.0708,53.4611],[143.0941,53.3819],[143.1829,53.399],[143.2106,53.3632],[143.3605,52.8714],[143.2969,52.4537],[143.1937,52.337],[143.1978,52.4258],[143.2723,52.4633],[143.2354,52.4809],[143.2935,52.5919],[143.2614,52.5976],[143.1187,52.3378],[143.1775,52.3138],[143.1514,52.1201],[143.1156,52.153],[143.0977,52.1042],[143.1594,51.9957],[143.1255,51.967],[143.1631,51.874],[143.2131,51.8548],[143.2385,51.8915],[143.3179,51.7064],[143.2611,51.6782],[143.2241,51.5222],[143.3379,51.5084],[143.3651,51.645],[143.4478,51.5084],[143.4749,51.3432],[143.3794,51.3501],[143.4749,51.2893],[143.4831,51.2136],[143.5213,51.2468],[143.4955,51.3091],[143.5217,51.2851],[143.7903,50.3092],[144.0027,50.0128],[144.385,49.0727],[144.6847,48.8732],[144.7029,48.6887],[144.7566,48.6433],[144.6773,48.6564],[144.6326,48.8083],[144.5037,48.9487],[144.0579,49.2534],[143.4035,49.4005],[143.2586,49.3934],[143.3313,49.3139],[143.6668,49.3149],[143.1742,49.246],[143.0088,49.123],[142.9885,48.9167],[142.5374,48.0101],[142.5453,47.7667],[142.7481,47.4448],[142.714,47.4372],[142.8786,47.3894],[143.0164,47.2536],[143.0977,46.8756],[143.1741,46.8627],[143.0838,46.8135],[143.1729,46.7078],[143.3897,46.7081],[143.1937,46.78],[143.1971,46.8408],[143.321,46.7957],[143.4782,46.8284],[143.5576,46.3964],[143.6257,46.3747],[143.4758,46.19],[143.4305,46.0252],[143.4214,46.2231],[143.3379,46.4094],[143.3687,46.5555],[143.2764,46.5602],[143.3032,46.5144],[143.1595,46.5983],[142.7966,46.5944],[142.7246,46.7408],[142.6184,46.7186],[142.4065,46.5537],[142.2819,46.3275],[142.2017,46.0307],[142.12,45.9922],[142.0853,45.9008],[141.9326,46.0358],[141.8142,46.5384],[142.0567,47.0537],[142.0567,47.1697],[141.9751,47.2976],[141.9658,47.6125],[142.1911,47.9667],[142.1331,48.3337],[141.9196,48.6091],[141.8574,48.7742],[141.9673,48.8624],[142.125,49.4623],[142.1597,49.678],[142.125,49.8976],[142.1738,50.0864],[142.1455,50.3638],[142.0414,50.551],[142.097,50.8219],[142.2692,51.1124],[142.0789,51.4714],[141.9427,51.5593],[141.9392,51.6119],[141.8667,51.6125],[141.6868,51.7473],[141.823,51.7442],[141.8096,51.8062],[141.639,51.8845],[141.6755,51.9124],[141.645,52.0848],[141.6999,52.1657],[141.6419,52.3182],[141.8438,52.5908],[141.8097,52.6039],[141.9284,53.0207],[141.7688,53.3716],[142.2411,53.5294],[142.2639,53.3801],[142.4553,53.3803],[142.5767,53.5001],[142.6873,53.5294],[142.5862,53.5758],[142.514,53.5456],[142.4977,53.6583],[142.6414,53.6818],[142.7185,53.6402],[142.8045,53.707],[142.7391,53.8457],[142.6731,53.7143],[142.6042,53.6976],[142.7185,53.9073],[142.6513,54.0],[142.9375,53.9909]]],[[[146.2046,43.5388],[146.2092,43.4835],[146.1519,43.4628],[146.0794,43.5176],[146.2046,43.5388]]],[[[146.8462,43.8783],[146.9421,43.8466],[146.9146,43.8027],[146.6819,43.7114],[146.6022,43.7361],[146.6047,43.8086],[146.8462,43.8783]]],[[[146.5519,44.4511],[146.5139,44.364],[146.448,44.3787],[146.3037,44.2821],[146.1165,44.2544],[145.923,44.1137],[145.7782,43.9326],[145.5887,43.8476],[145.5562,43.6527],[145.5518,43.7163],[145.4431,43.7245],[145.4109,43.836],[145.7288,44.0438],[146.1193,44.506],[146.3635,44.422],[146.5519,44.4511]]],[[[148.8065,45.4045],[148.8434,45.3518],[148.7822,45.3194],[148.5843,45.3155],[148.2158,45.1957],[147.913,44.963],[147.7683,44.9433],[147.7008,45.008],[147.6538,44.9949],[147.6454,44.9081],[147.226,44.581],[147.0547,44.5372],[146.9583,44.421],[146.8618,44.4453],[146.9499,44.5489],[146.937,44.6248],[147.0007,44.566],[147.0378,44.599],[146.9986,44.6626],[147.0914,44.6374],[147.1966,44.7137],[147.2039,44.7554],[147.1219,44.7763],[147.1092,44.8271],[147.2165,44.799],[147.2644,44.8676],[147.4666,44.9669],[147.5114,45.0873],[147.6196,45.0653],[147.757,45.1857],[147.8949,45.2239],[147.8607,45.3542],[147.94,45.4263],[148.0046,45.2812],[148.0696,45.2512],[148.3119,45.2753],[148.5603,45.4634],[148.7266,45.5252],[148.8513,45.4815],[148.8065,45.4045]]],[[[150.2111,46.1792],[150.5693,46.2318],[150.2454,46.037],[150.1976,45.9296],[150.023,45.8238],[149.9229,45.8107],[149.6378,45.6109],[149.5772,45.6373],[149.55,45.5904],[149.4367,45.587],[149.6673,45.8532],[149.811,45.8798],[150.0202,46.073],[150.1807,46.1054],[150.2111,46.1792]]],[[[152.1987,47.1288],[152.2949,47.1425],[151.8506,46.7905],[151.7122,46.8066],[151.7053,46.8483],[151.8733,46.8718],[152.1589,47.1339],[152.2254,47.1766],[152.1987,47.1288]]],[[[152.5213,47.3725],[152.5244,47.2986],[152.4132,47.3407],[152.4263,47.3835],[152.5213,47.3725]]],[[[153.0493,47.8079],[153.0598,47.7218],[152.9783,47.6843],[152.9702,47.7516],[153.0493,47.8079]]],[[[153.2908,48.065],[153.2009,48.0526],[153.1646,48.1214],[153.2147,48.1257],[153.2908,48.065]]],[[[154.2308,48.8972],[154.0564,48.7378],[153.9733,48.7395],[154.1195,48.8996],[154.2308,48.8972]]],[[[154.0007,48.9598],[153.9607,48.9267],[153.9021,48.9565],[153.9151,48.9825],[154.0007,48.9598]]],[[[154.5838,49.1487],[154.6013,49.1111],[154.5117,49.0802],[154.4395,49.1572],[154.5838,49.1487]]],[[[154.4801,49.811],[154.4479,49.7295],[154.3739,49.7785],[154.4224,49.816],[154.4801,49.811]]],[[[156.1172,50.7491],[156.1525,50.519],[156.0569,50.4863],[156.0376,50.4099],[155.782,50.1896],[155.5015,50.1373],[155.3958,49.9958],[155.3767,50.0469],[155.2166,50.0671],[155.2551,50.1547],[155.2019,50.2935],[155.3202,50.2889],[155.4417,50.3706],[155.6896,50.4037],[155.8895,50.6909],[156.0412,50.7728],[156.1172,50.7491]]],[[[156.4836,50.8569],[156.511,50.7658],[156.4058,50.6301],[156.2724,50.6334],[156.1663,50.7133],[156.1994,50.7805],[156.3574,50.8562],[156.4836,50.8569]]],[[[155.5233,50.8134],[155.4468,50.8846],[155.4741,50.9218],[155.6313,50.9123],[155.6729,50.8703],[155.6699,50.812],[155.5233,50.8134]]],[[[150.8465,46.4421],[150.8091,46.4457],[150.7801,46.4572],[150.8085,46.4864],[150.8465,46.4421]]],[[[154.751,49.5956],[154.905,49.6308],[154.8027,49.4787],[154.8151,49.3102],[154.72,49.267],[154.606,49.2927],[154.6082,49.375],[154.751,49.5956]]],[[[132.4675,42.8109],[132.4015,42.832],[132.4275,42.8959],[132.4473,42.8768],[132.4675,42.8109]]]]}},{"type":"Feature","properties":{"source_index":55},"geometry":{"type":"MultiPolygon","coordinates":[[[[105.5661,18.0083],[105.4514,18.1927],[105.3655,18.151],[105.2951,18.1956],[105.2925,18.2527],[105.1567,18.3198],[105.08,18.4544],[105.1136,18.5808],[105.1695,18.6149],[105.1127,18.6983],[104.7103,18.7961],[104.4977,18.968],[104.0,19.2341],[104.0,19.4081],[104.0941,19.4955],[104.001,19.6807],[104.0887,19.6519],[104.229,19.706],[104.2953,19.6549],[104.3801,19.6853],[104.5058,19.6028],[104.6143,19.6074],[104.676,19.7247],[104.805,19.7909],[104.8166,19.8481],[104.7618,19.8855],[104.9495,19.9955],[104.9644,20.0761],[104.908,20.1753],[104.8192,20.221],[104.6571,20.2127],[104.6846,20.333],[104.5894,20.4068],[104.3598,20.4397],[104.445,20.5346],[104.5426,20.5357],[104.6007,20.6605],[104.1939,20.9299],[104.0567,20.9588],[104.0,20.9064],[104.0139,22.691],[104.0733,22.7827],[104.2133,22.825],[104.2368,22.7421],[104.3402,22.6864],[104.5535,22.836],[104.7008,22.8182],[104.8236,22.9241],[104.7979,23.0856],[104.8701,23.1635],[105.2009,23.254],[105.2937,23.3663],[105.5283,23.1555],[105.5516,23.0597],[105.6903,23.044],[105.8539,22.9047],[105.9992,22.9754],[106.1321,22.975],[106.2554,22.8547],[106.4878,22.9254],[106.7898,22.7972],[106.6802,22.5795],[106.5771,22.5953],[106.5269,22.4383],[106.5418,22.3451],[106.6338,22.3094],[106.6629,22.2233],[106.6531,21.9689],[106.7288,22.0083],[106.9204,21.917],[107.0094,21.9274],[107.0029,21.8106],[107.1724,21.7151],[107.2727,21.7183],[107.3482,21.5994],[107.426,21.6521],[107.5013,21.5815],[107.7779,21.656],[107.9912,21.4857],[107.9297,21.4426],[107.9097,21.5265],[107.8359,21.4883],[107.8267,21.5267],[107.8206,21.4931],[107.7669,21.5202],[107.7864,21.4584],[107.635,21.3832],[107.5906,21.2939],[107.5223,21.3485],[107.5266,21.2988],[107.4153,21.3287],[107.4431,21.2877],[107.3606,21.2392],[107.3743,21.0276],[107.2112,20.9923],[107.197,20.9376],[107.0661,20.9587],[107.1492,21.0406],[107.0462,20.9997],[107.0446,21.0251],[107.0256,21.0338],[107.001,20.9511],[106.8538,20.9923],[106.9431,20.9103],[106.8743,20.9376],[106.8679,20.8827],[106.7725,20.9574],[106.8206,20.976],[106.7981,21.0248],[106.6421,21.0202],[106.7551,20.9385],[106.7445,20.883],[106.7,20.8828],[106.8059,20.6776],[106.7671,20.7134],[106.6626,20.698],[106.7031,20.6597],[106.6375,20.6281],[106.5868,20.6633],[106.6248,20.5946],[106.5186,20.541],[106.5799,20.5472],[106.5799,20.4783],[106.5186,20.4373],[106.5942,20.4482],[106.5596,20.3759],[106.5926,20.2754],[106.5817,20.2642],[106.537,20.3091],[106.4981,20.3083],[106.5696,20.232],[106.3807,20.212],[106.176,19.9923],[106.1071,19.965],[106.1071,20.0333],[106.0835,19.965],[106.0252,19.9992],[105.9556,19.9255],[105.9289,19.7936],[105.8674,19.7732],[105.9233,19.7668],[105.819,19.5876],[105.8176,19.61],[105.8039,19.613],[105.7909,19.6035],[105.8128,19.4232],[105.7713,19.4033],[105.8088,19.2802],[105.7434,19.2319],[105.7371,19.1085],[105.6438,19.0654],[105.6133,18.9855],[105.752,18.7863],[105.7507,18.6628],[105.7644,18.759],[105.8792,18.5109],[106.0934,18.2587],[106.2708,18.2041],[106.346,18.1327],[106.3063,18.1005],[106.3467,18.0595],[106.4348,18.1235],[106.4825,18.0],[105.5661,18.0083]]],[[[107.0852,20.7972],[107.0319,20.7874],[107.0735,20.7322],[107.0462,20.7042],[106.9129,20.8369],[107.0227,20.8622],[107.0852,20.7972]]],[[[106.8456,20.866],[106.8735,20.7895],[106.8196,20.8768],[106.8196,20.842],[106.7707,20.8586],[106.7854,20.9308],[106.8456,20.866]]],[[[107.4639,20.8141],[107.5532,20.9724],[107.5452,20.9191],[107.4639,20.8141]]],[[[107.7376,21.0032],[107.7928,20.986],[107.7383,20.9376],[107.7376,21.0032]]],[[[107.5464,21.0349],[107.5117,20.924],[107.395,20.8973],[107.5047,21.0202],[107.5464,21.0349]]],[[[107.6283,21.1202],[107.5796,20.9831],[107.5594,20.986],[107.5942,21.0891],[107.6283,21.1202]]],[[[107.6032,21.2193],[107.4707,21.0959],[107.3729,21.0596],[107.4553,21.2757],[107.5327,21.1989],[107.6032,21.2193]]],[[[107.7839,21.3563],[107.8171,21.3485],[107.7114,21.3076],[107.7839,21.3563]]],[[[107.9983,21.4038],[107.8543,21.3504],[107.8728,21.3742],[107.8269,21.3703],[107.9983,21.4038]]],[[[107.3571,20.8293],[107.3503,20.8109],[107.3411,20.8426],[107.3571,20.8293]]],[[[107.3923,20.8847],[107.3677,20.8584],[107.3325,20.8833],[107.3392,20.8904],[107.3923,20.8847]]],[[[107.8257,21.025],[107.8528,21.0199],[107.8177,20.9883],[107.8257,21.025]]]]}},{"type":"Feature","properties":{"source_index":67},"geometry":{"type":"MultiPolygon","coordinates":[[[[104.0106,20.9081],[104.0567,20.9588],[104.1939,20.9299],[104.6007,20.6605],[104.5426,20.5357],[104.445,20.5346],[104.3598,20.4397],[104.5894,20.4068],[104.6846,20.333],[104.6571,20.2127],[104.8192,20.221],[104.908,20.1753],[104.9644,20.0761],[104.9495,19.9955],[104.7618,19.8855],[104.8166,19.8481],[104.805,19.7909],[104.676,19.7247],[104.6143,19.6074],[104.5058,19.6028],[104.3801,19.6853],[104.2953,19.6549],[104.229,19.706],[104.0887,19.6519],[104.0,19.6781],[104.0106,20.9081]]],[[[104.0,19.6463],[104.0941,19.4955],[104.0,19.4081],[104.0,19.6463]]],[[[104.0162,19.2349],[104.4977,18.968],[104.7103,18.7961],[105.1127,18.6983],[105.1695,18.6149],[105.1136,18.5808],[105.08,18.4544],[105.1567,18.3198],[105.2925,18.2527],[105.2951,18.1956],[105.3655,18.151],[105.4514,18.1927],[105.5818,18.0],[104.215,18.0],[104.0,18.3185],[104.0162,19.2349]]]]}},{"type":"Feature","properties":{"source_index":110},"geometry":{"type":"Polygon","coordinates":[[[104.0,18.3184],[104.1224,18.0953],[104.215,18.0],[104.0,18.0],[104.0,18.3184]]]}},{"type":"Feature","properties":{"source_index":166},"geometry":{"type":"MultiPolygon","coordinates":[[[[114.2347,22.5562],[114.2093,22.5237],[114.2546,22.551],[114.3351,22.5064],[114.1675,22.4481],[114.2093,22.3987],[114.3237,22.48],[114.3476,22.4229],[114.3599,22.4612],[114.3997,22.4361],[114.3576,22.3324],[114.3186,22.3894],[114.2584,22.3621],[114.2967,22.2583],[114.2555,22.3223],[114.2389,22.2817],[114.1955,22.3183],[114.1719,22.2887],[114.1048,22.3699],[113.9448,22.3621],[113.897,22.4088],[114.0915,22.5344],[114.2347,22.5562]]],[[[114.1108,22.1771],[114.1141,22.2161],[114.1067,22.2358],[114.1546,22.2036],[114.1108,22.1771]]],[[[114.2218,22.2794],[114.2561,22.2036],[114.2227,22.2388],[114.2077,22.1896],[114.1126,22.2715],[114.2218,22.2794]]],[[[113.8392,22.2049],[113.8925,22.2927],[114.0549,22.3363],[114.0002,22.2161],[113.8392,22.2049]]]]}},{"type":"Feature","properties":{"source_index":182},"geometry":{"type":"MultiPolygon","coordinates":[[[[122.3171,18.3774],[122.307,18.2513],[122.1743,18.1135],[122.1825,18.0],[120.4756,18.0],[120.4701,18.091],[120.5862,18.3645],[120.5608,18.4868],[120.6111,18.5386],[120.7708,18.5615],[120.813,18.6445],[120.9269,18.5662],[121.1068,18.6427],[121.1707,18.6255],[121.6497,18.314],[121.645,18.3695],[121.8528,18.288],[121.9868,18.2904],[122.1193,18.403],[122.1528,18.5188],[122.2354,18.5154],[122.3171,18.3774]]],[[[121.2752,18.8759],[121.4778,18.8819],[121.3186,18.8432],[121.2752,18.8759]]],[[[121.9837,18.9748],[121.875,18.8304],[121.8342,18.8343],[121.8926,18.9965],[121.9837,18.9748]]],[[[121.2197,19.1718],[121.259,19.0457],[121.245,19.0185],[121.1903,19.0873],[121.2197,19.1718]]],[[[121.5379,19.3068],[121.471,19.2692],[121.3508,19.3759],[121.5166,19.3935],[121.5379,19.3068]]],[[[121.9829,19.5753],[121.978,19.4988],[121.8982,19.5368],[121.9002,19.5592],[121.9829,19.5753]]],[[[121.8384,20.3408],[121.8921,20.2973],[121.8508,20.2734],[121.8384,20.3408]]],[[[122.0193,20.4865],[121.9712,20.3685],[121.9221,20.3542],[121.966,20.4606],[122.0193,20.4865]]],[[[121.8677,20.7443],[121.7864,20.7031],[121.8558,20.8383],[121.8792,20.814],[121.8677,20.7443]]],[[[121.9297,21.0645],[121.9348,21.0732],[121.9367,21.0656],[121.9297,21.0645]]],[[[121.9474,21.1162],[121.9543,21.1184],[121.9491,21.1069],[121.9474,21.1162]]]]}},{"type":"Feature","properties":{"source_index":188},"geometry":{"type":"MultiPolygon","coordinates":[[[[121.8347,24.8715],[121.815,24.6444],[121.8818,24.5978],[121.8408,24.5903],[121.84,24.4813],[121.78,24.4327],[121.7727,24.3092],[121.6074,24.0769],[121.6292,24.015],[121.4001,23.1455],[121.1774,22.7786],[120.9483,22.5268],[120.8814,22.3459],[120.8403,21.9046],[120.7674,21.9593],[120.7144,21.9375],[120.6213,22.2951],[120.512,22.4247],[120.3809,22.4839],[120.3312,22.5197],[120.2852,22.5801],[120.3337,22.5259],[120.2396,22.6591],[120.1421,22.9803],[120.1662,23.0317],[120.0552,23.0437],[120.1004,23.097],[120.0594,23.151],[120.1489,23.3223],[120.1208,23.3413],[120.1646,23.3617],[120.1243,23.52],[120.1844,23.7644],[120.7022,24.607],[120.8267,24.6661],[121.0593,25.0502],[121.3788,25.1579],[121.4432,25.1364],[121.3958,25.1828],[121.4363,25.2414],[121.5808,25.283],[121.7039,25.1569],[121.8928,25.1137],[121.9192,25.022],[122.0054,25.0019],[121.8347,24.8715]]],[[[121.5811,22.0322],[121.5389,22.0182],[121.492,22.0822],[121.5666,22.0822],[121.5811,22.0322]]],[[[118.4226,24.528],[118.4488,24.4155],[118.2839,24.4013],[118.2821,24.4774],[118.3814,24.4735],[118.4226,24.528]]],[[[119.6658,23.5733],[119.5824,23.5189],[119.5271,23.54],[119.5872,23.5488],[119.5524,23.5904],[119.6131,23.6103],[119.6658,23.5733]]],[[[119.4894,23.6396],[119.4917,23.571],[119.4424,23.5625],[119.4745,23.5797],[119.4894,23.6396]]],[[[119.5962,23.6533],[119.5453,23.6649],[119.5664,23.6792],[119.5962,23.6533]]],[[[121.4554,22.6738],[121.5,22.6763],[121.4961,22.6347],[121.4714,22.6418],[121.4554,22.6738]]],[[[120.0219,23.4516],[120.1248,23.5505],[120.0077,23.4326],[120.0219,23.4516]]]]}},{"type":"Feature","properties":{"source_index":189},"geometry":{"type":"MultiPolygon","coordinates":[[[[129.7909,31.7844],[129.7293,31.6442],[129.6594,31.6419],[129.7166,31.7304],[129.7909,31.7844]]],[[[131.6566,32.4574],[131.6891,32.4217],[131.6294,32.3868],[131.4473,31.8769],[131.4963,31.796],[131.4553,31.6209],[131.3382,31.3726],[131.2498,31.3881],[131.2127,31.4547],[131.0718,31.4496],[131.0136,31.3631],[131.104,31.3288],[131.0742,31.2821],[131.1321,31.2795],[131.0082,31.2211],[130.9407,31.1213],[130.6577,31.0032],[130.6633,31.0695],[130.7427,31.1213],[130.7953,31.3444],[130.7034,31.4593],[130.6956,31.5458],[130.5909,31.586],[130.6878,31.6195],[130.7586,31.5638],[130.8103,31.6509],[130.7764,31.7103],[130.6448,31.7147],[130.5291,31.5133],[130.5627,31.3344],[130.6603,31.2714],[130.5864,31.1554],[130.4511,31.2494],[130.2222,31.2463],[130.2078,31.3366],[130.119,31.4086],[130.2283,31.3813],[130.3345,31.5624],[130.3254,31.6421],[130.1714,31.7901],[130.1903,31.8351],[130.2351,31.8195],[130.1799,32.0935],[130.3196,32.1182],[130.4696,32.3471],[130.5125,32.3382],[130.5505,32.4917],[130.5988,32.5054],[130.5647,32.5463],[130.6683,32.6487],[130.448,32.6214],[130.626,32.704],[130.6113,32.7855],[130.4413,32.9237],[130.4207,33.0876],[130.2414,33.1882],[130.1276,33.1209],[130.2223,32.9752],[130.1053,32.8759],[130.3394,32.8566],[130.3608,32.688],[130.166,32.593],[130.1281,32.6839],[130.2076,32.7522],[130.0938,32.7949],[129.9585,32.7648],[129.8949,32.6627],[129.7404,32.5684],[129.8591,32.7245],[129.6384,32.9265],[129.6816,33.0941],[129.7597,33.0479],[129.7417,32.991],[129.7663,33.018],[129.8233,32.9795],[129.7944,32.8749],[130.0031,32.8454],[129.9312,32.9289],[129.9456,33.0158],[129.8814,33.0628],[129.7465,33.0656],[129.7587,33.1389],[129.7098,33.1626],[129.6665,33.1013],[129.6527,33.1903],[129.5521,33.2258],[129.5804,33.371],[129.6732,33.3985],[129.701,33.353],[129.8075,33.3481],[129.8516,33.28],[129.8687,33.3974],[129.7873,33.4545],[129.8184,33.4842],[129.8713,33.4429],[129.8532,33.5525],[129.9421,33.5317],[129.9412,33.4795],[130.0169,33.4458],[130.168,33.5341],[130.093,33.5734],[130.208,33.6651],[130.2903,33.5742],[130.3909,33.6049],[130.3987,33.6691],[130.349,33.6411],[130.2893,33.6815],[130.3455,33.6625],[130.4446,33.7182],[130.4889,33.8554],[130.756,33.9437],[130.9136,33.8912],[131.0071,33.9661],[130.9617,33.8162],[131.0069,33.8131],[131.103,33.6243],[131.3676,33.5748],[131.521,33.6764],[131.6674,33.6672],[131.7373,33.4846],[131.7062,33.4096],[131.6403,33.4166],[131.5962,33.3494],[131.506,33.3631],[131.5104,33.2734],[131.9026,33.266],[131.8096,33.1276],[131.9115,33.1248],[131.8805,33.075],[131.9961,33.0917],[132.0095,33.0512],[131.9296,33.0471],[131.9032,32.9831],[132.0812,32.9432],[131.9822,32.8889],[131.9556,32.8275],[131.9966,32.8105],[131.8825,32.7834],[131.8559,32.6861],[131.8219,32.7027],[131.7047,32.5816],[131.6851,32.5224],[131.7365,32.4917],[131.6566,32.4574]]],[[[134.722,33.8341],[134.3123,33.5725],[134.1765,33.2361],[133.9252,33.4937],[133.7394,33.5375],[133.2922,33.3647],[133.2254,33.1591],[133.0017,32.987],[133.0025,32.8693],[132.9551,32.8526],[133.0276,32.7397],[133.0022,32.7117],[132.9151,32.778],[132.6277,32.7521],[132.7092,32.9094],[132.5589,32.9368],[132.5042,32.8917],[132.4715,33.0407],[132.3824,33.0198],[132.4079,33.0693],[132.4518,33.0529],[132.4832,33.0677],[132.4491,33.1149],[132.4901,33.1328],[132.3947,33.2039],[132.4857,33.1692],[132.5484,33.2269],[132.4846,33.2765],[132.5256,33.3147],[132.3787,33.3195],[132.4212,33.4445],[132.3078,33.4643],[132.0105,33.349],[132.4124,33.535],[132.6766,33.7156],[132.7124,33.9045],[132.7549,33.9103],[132.7699,33.9963],[132.9191,34.0684],[132.8975,34.1227],[132.9424,34.1413],[133.127,33.9333],[133.3226,33.9906],[133.511,33.9652],[133.6413,34.0792],[133.6411,34.1846],[133.5584,34.2595],[133.7014,34.2313],[133.937,34.3751],[134.0813,34.3477],[134.1436,34.3918],[134.1663,34.3249],[134.2168,34.355],[134.4398,34.2083],[134.6469,34.2393],[134.5946,34.0298],[134.7026,33.9373],[134.6463,33.8531],[134.722,33.8341]]],[[[133.0935,36.1028],[133.1232,36.0629],[133.0791,36.0209],[133.0935,36.1028]]],[[[133.0933,36.1234],[133.1136,36.1135],[133.0933,36.1098],[133.0933,36.1234]]],[[[133.0876,36.127],[133.0449,36.0551],[132.9494,36.062],[133.0387,36.1308],[133.0876,36.127]]],[[[133.4303,34.473],[133.2817,34.3215],[133.315,34.366],[133.2473,34.4265],[133.1821,34.3414],[133.2029,34.2889],[133.0933,34.2526],[133.0723,34.3175],[133.1685,34.355],[133.0933,34.3898],[133.0591,34.3323],[132.8362,34.3111],[132.7715,34.2353],[132.5662,34.192],[132.5037,34.2873],[132.5176,34.353],[132.346,34.3488],[132.2225,34.239],[132.2132,33.9897],[132.1356,33.9384],[132.1616,33.8417],[132.0559,33.7772],[132.0995,33.8723],[131.8521,33.9984],[131.7796,33.9697],[131.8228,34.0267],[131.7415,34.0562],[131.5933,34.0373],[131.5789,33.9857],[131.4829,34.032],[131.4412,33.9789],[131.3933,33.9857],[131.3899,34.0397],[131.258,33.9248],[131.1782,33.9305],[131.0356,34.048],[130.9158,33.914],[130.8794,33.9379],[130.9171,34.0109],[130.8616,34.1127],[130.9233,34.1838],[130.8716,34.2792],[130.8931,34.3435],[131.0336,34.3818],[130.9339,34.396],[130.9588,34.4274],[131.1339,34.4116],[131.1727,34.3677],[131.1713,34.4295],[131.2526,34.4374],[131.2812,34.408],[131.2295,34.4177],[131.209,34.3693],[131.4143,34.424],[131.5969,34.6596],[131.8584,34.7145],[132.4081,35.1751],[132.6387,35.2946],[132.674,35.3854],[132.6354,35.441],[132.9697,35.517],[133.0913,35.6015],[133.1565,35.5626],[133.3088,35.5772],[133.2647,35.4962],[133.4002,35.4543],[133.5802,35.5336],[133.7311,35.5029],[134.2378,35.5467],[134.537,35.6722],[134.927,35.6412],[135.2268,35.7723],[135.3062,35.6715],[135.1883,35.5453],[135.2482,35.5917],[135.2387,35.542],[135.3355,35.5082],[135.319,35.447],[135.4024,35.4822],[135.3378,35.5375],[135.4632,35.6033],[135.5296,35.4927],[135.6489,35.5428],[135.6221,35.4866],[135.7244,35.4907],[135.7482,35.5335],[135.6916,35.5459],[135.7384,35.5705],[135.794,35.5314],[135.8343,35.5344],[135.8117,35.6434],[135.9806,35.6305],[135.956,35.7283],[136.0197,35.7653],[136.0691,35.6619],[136.0995,35.7757],[135.9935,35.8851],[135.9632,35.9999],[136.1242,36.2532],[136.3823,36.3911],[136.6897,36.7308],[136.7676,36.981],[136.721,37.142],[136.6703,37.15],[136.7215,37.3253],[136.7838,37.3739],[137.2555,37.5246],[137.3509,37.5061],[137.3512,37.4457],[137.2536,37.4291],[137.2302,37.2921],[137.1087,37.2835],[137.0142,37.1849],[136.9511,37.2345],[136.8609,37.0768],[136.9801,37.0469],[137.0471,37.0988],[137.0055,36.8359],[137.157,36.7608],[137.2987,36.757],[137.3836,36.8001],[137.4476,36.9335],[137.8967,37.0575],[138.0975,37.1711],[138.2449,37.1838],[138.5506,37.3779],[138.7466,37.5969],[138.8577,37.8278],[139.2159,37.9899],[139.4251,38.1513],[139.4927,38.4542],[139.5992,38.6483],[139.7738,38.8171],[139.9168,39.2625],[139.9953,39.3273],[140.0486,39.5047],[140.0276,39.8245],[139.9214,39.8985],[139.7601,39.8581],[139.6977,39.9886],[139.8669,39.9843],[140.0112,40.2355],[140.0243,40.355],[139.9461,40.4188],[139.9285,40.571],[139.8604,40.6088],[140.046,40.7678],[140.1224,40.7448],[140.2708,40.8124],[140.3219,41.0274],[140.3696,40.9861],[140.4078,41.0257],[140.2481,41.1234],[140.3204,41.1498],[140.3423,41.2657],[140.4622,41.1839],[140.5486,41.2262],[140.6327,41.1943],[140.7031,40.8533],[140.7992,40.8391],[140.8521,40.8838],[140.8405,40.953],[140.8887,41.0108],[141.1263,40.8729],[141.2264,40.9874],[141.2779,41.1553],[141.2059,41.2647],[141.1612,41.2785],[141.0581,41.1831],[140.7658,41.145],[140.9071,41.5385],[141.2761,41.3532],[141.4606,41.4302],[141.3863,41.0304],[141.4374,40.6701],[141.4916,40.5623],[141.6909,40.4423],[141.8304,40.2512],[141.8133,40.1836],[141.8772,40.1393],[141.8425,40.0704],[141.9496,39.9966],[142.0049,39.7727],[141.9605,39.6116],[142.0361,39.639],[142.0703,39.5502],[141.953,39.4608],[142.0584,39.4663],[141.9053,39.3305],[141.981,39.351],[141.8991,39.2752],[141.947,39.2497],[141.8787,39.2076],[141.9158,39.17],[141.8438,39.1523],[141.9133,39.0977],[141.8171,39.0909],[141.8718,39.0629],[141.8233,39.0567],[141.8474,39.022],[141.7277,39.0363],[141.7302,38.9512],[141.6384,38.9854],[141.6736,38.852],[141.5886,38.8822],[141.5871,38.8192],[141.5217,38.7681],[141.5664,38.7036],[141.4631,38.6614],[141.5352,38.632],[141.4671,38.5695],[141.5476,38.5186],[141.4705,38.4295],[141.5491,38.3852],[141.5012,38.3715],[141.5254,38.2678],[141.4281,38.3804],[141.3045,38.4079],[141.2024,38.3858],[141.1697,38.3228],[141.1318,38.3715],[141.0794,38.3609],[141.0487,38.3095],[141.0806,38.2949],[140.9668,38.1705],[140.9198,37.9652],[141.0222,37.727],[141.0078,37.1339],[140.9603,36.9662],[140.8044,36.886],[140.7419,36.7685],[140.6235,36.5061],[140.6169,36.3378],[140.5641,36.2831],[140.646,36.0133],[140.8794,35.7205],[140.6611,35.6886],[140.4835,35.566],[140.3859,35.381],[140.4131,35.3012],[140.3776,35.1764],[140.3212,35.1304],[140.1346,35.1226],[139.991,35.0205],[139.9264,34.9074],[139.8431,34.9],[139.757,34.9563],[139.87,34.9993],[139.819,35.1577],[139.8663,35.2462],[139.781,35.3181],[139.8927,35.3642],[139.9001,35.4231],[140.102,35.5671],[139.9836,35.6686],[139.7891,35.6032],[139.7653,35.6535],[139.7881,35.5133],[139.6423,35.4543],[139.6874,35.4322],[139.6358,35.4016],[139.6484,35.2979],[139.7455,35.249],[139.6665,35.1939],[139.6851,35.1404],[139.6163,35.134],[139.624,35.2116],[139.5442,35.3079],[139.1835,35.2633],[139.146,35.2352],[139.1581,35.1365],[139.1208,35.1503],[139.0767,35.0751],[139.1409,34.8706],[138.9988,34.7333],[138.9937,34.6498],[138.8353,34.5959],[138.7466,34.6915],[138.7898,34.9068],[138.7619,34.9799],[138.7861,35.0264],[138.9076,35.0307],[138.8033,35.1219],[138.5541,35.0961],[138.4979,35.0326],[138.5143,34.9802],[138.3671,34.9173],[138.3408,34.8265],[138.216,34.7123],[138.1936,34.6415],[138.2333,34.5946],[137.9676,34.6665],[137.7922,34.6394],[137.547,34.6773],[137.0161,34.5788],[137.0728,34.6646],[137.1108,34.6254],[137.3408,34.7265],[137.28,34.8081],[137.1944,34.807],[137.1708,34.7639],[137.0182,34.7833],[136.9582,34.8324],[136.9789,34.9242],[136.9156,34.776],[136.9715,34.6964],[136.856,34.7398],[136.8235,34.9549],[136.8857,35.0892],[136.8489,35.0395],[136.8301,35.0788],[136.8393,35.0325],[136.6592,34.984],[136.5195,34.6809],[136.551,34.602],[136.916,34.434],[136.9168,34.3762],[136.8753,34.3693],[136.9099,34.355],[136.8957,34.2669],[136.8355,34.2464],[136.7942,34.2531],[136.8464,34.3076],[136.7026,34.2952],[136.7068,34.3343],[136.3367,34.184],[136.3084,34.09],[136.2185,34.0751],[136.2732,33.9714],[136.2322,33.9931],[136.2285,33.9384],[136.1047,33.8914],[135.9371,33.6175],[135.9599,33.5931],[135.76,33.4333],[135.7656,33.4815],[135.4448,33.5508],[135.3277,33.6712],[135.3916,33.7136],[135.2326,33.782],[135.1187,33.8929],[135.0589,33.88],[135.0757,33.9775],[135.1616,34.025],[135.0945,34.0676],[135.1228,34.1371],[135.19,34.1496],[135.061,34.2673],[135.3726,34.4845],[135.4129,34.6921],[135.2549,34.7009],[135.2201,34.6908],[135.2423,34.6508],[135.186,34.6749],[135.0458,34.625],[134.7444,34.7665],[134.4912,34.7871],[134.354,34.7051],[134.2088,34.728],[134.2788,34.6982],[134.148,34.597],[133.9944,34.6087],[133.9367,34.5872],[133.9426,34.5551],[134.0462,34.5815],[133.9363,34.4512],[133.7944,34.4429],[133.7234,34.5276],[133.4701,34.424],[133.5225,34.4831],[133.4303,34.473]]],[[[143.8137,44.1684],[143.9758,44.1483],[143.9404,44.1391],[143.8137,44.1684]]],[[[145.5823,43.3358],[145.825,43.3736],[145.6292,43.3098],[145.5306,43.1688],[145.1384,43.1282],[145.1227,43.0882],[145.1682,43.0794],[145.0031,43.0446],[145.0143,42.9895],[144.8998,42.9795],[144.7987,43.0467],[144.7356,42.9795],[144.7835,42.9348],[144.742,42.9242],[144.4649,42.9371],[144.323,43.0026],[143.8864,42.8442],[143.5752,42.6033],[143.349,42.3192],[143.3311,42.1069],[143.2415,41.928],[142.9597,42.1054],[142.46,42.2713],[142.1678,42.4599],[141.8171,42.5996],[141.6365,42.6158],[141.4277,42.5644],[140.9773,42.2996],[140.9317,42.3288],[140.9868,42.3398],[140.7337,42.5642],[140.5007,42.5792],[140.3254,42.4328],[140.2918,42.2596],[140.5488,42.1055],[140.7136,42.1335],[140.9743,41.9138],[141.2,41.7995],[141.0064,41.7121],[140.824,41.7707],[140.708,41.7456],[140.7272,41.8113],[140.6604,41.8271],[140.6043,41.7363],[140.4529,41.6811],[140.4324,41.5308],[140.2747,41.4824],[140.209,41.4011],[140.0383,41.4426],[139.9798,41.5817],[140.1267,41.814],[140.145,41.9827],[139.7983,42.2359],[139.7676,42.311],[139.8368,42.4239],[139.8328,42.5888],[139.877,42.6634],[140.0379,42.686],[140.2004,42.8143],[140.2815,42.7573],[140.5212,42.9963],[140.4873,43.0827],[140.3381,43.2105],[140.3601,43.3252],[140.4872,43.3724],[140.7962,43.1955],[141.0112,43.229],[141.022,43.175],[141.1691,43.1409],[141.304,43.1973],[141.4233,43.3179],[141.4397,43.4078],[141.3599,43.5236],[141.3914,43.5791],[141.3374,43.7128],[141.385,43.7913],[141.6406,43.9379],[141.6554,44.2769],[141.7472,44.4242],[141.7961,44.6418],[141.7536,44.8854],[141.5864,45.1644],[141.5838,45.2512],[141.6492,45.341],[141.648,45.4372],[141.6921,45.4023],[141.8233,45.4226],[141.9194,45.5159],[142.2212,45.2996],[142.9815,44.5865],[143.4053,44.3175],[143.7766,44.1893],[143.6804,44.1824],[143.7283,44.1135],[144.1193,44.1291],[144.1717,44.106],[144.1055,44.0316],[144.1528,44.0198],[144.2429,44.1192],[144.3794,43.9565],[144.4304,43.9426],[144.5703,43.9248],[144.7405,43.9146],[145.2017,44.2058],[145.3415,44.3455],[145.3718,44.2488],[145.1443,43.9529],[145.0715,43.7746],[145.2185,43.5897],[145.3117,43.3668],[145.3936,43.3054],[145.2583,43.3271],[145.5171,43.229],[145.4966,43.2706],[145.5823,43.3358]]],[[[123.7699,24.4184],[123.9344,24.3675],[123.8731,24.2582],[123.6682,24.2966],[123.7424,24.3197],[123.7699,24.4184]]],[[[123.0164,24.4698],[122.9984,24.4395],[122.9386,24.4442],[122.9556,24.4731],[123.0164,24.4698]]],[[[124.3323,24.571],[124.2419,24.3637],[124.1403,24.342],[124.0784,24.4355],[124.2119,24.447],[124.3323,24.571]]],[[[141.3655,24.7777],[141.3306,24.7691],[141.2896,24.727],[141.2995,24.7859],[141.3655,24.7777]]],[[[125.2603,24.8852],[125.4526,24.7449],[125.2588,24.7334],[125.2603,24.8852]]],[[[131.2771,25.8584],[131.2525,25.819],[131.2121,25.829],[131.2411,25.8757],[131.2771,25.8584]]],[[[126.8103,26.3425],[126.7824,26.3045],[126.6978,26.369],[126.7699,26.388],[126.8103,26.3425]]],[[[142.1659,26.7013],[142.1802,26.6188],[142.1113,26.7212],[142.1659,26.7013]]],[[[128.3333,26.793],[128.3081,26.7009],[128.1589,26.6188],[128.1384,26.554],[127.8517,26.4412],[127.9199,26.3096],[127.8283,26.3162],[127.771,26.2165],[127.8236,26.1868],[127.7969,26.1397],[127.6517,26.0844],[127.6382,26.2147],[127.7419,26.3205],[127.7225,26.4299],[127.9602,26.5641],[127.8856,26.6202],[127.8783,26.6945],[128.0574,26.6448],[128.2259,26.801],[128.2551,26.8863],[128.3333,26.793]]],[[[142.2066,27.0971],[142.2411,27.0843],[142.2185,27.0404],[142.1802,27.0781],[142.2144,27.0638],[142.2066,27.0971]]],[[[128.7025,27.4516],[128.6131,27.3643],[128.5269,27.3719],[128.5384,27.4176],[128.7025,27.4516]]],[[[128.947,27.9141],[129.0243,27.7566],[128.9295,27.6867],[128.8945,27.8913],[128.947,27.9141]]],[[[129.1808,28.1903],[129.3504,28.0865],[129.2214,28.0991],[129.1808,28.1903]]],[[[130.0303,28.3735],[129.9955,28.2909],[129.9136,28.2971],[130.0303,28.3735]]],[[[129.7114,28.4556],[129.4989,28.2875],[129.4474,28.2909],[129.4202,28.2499],[129.4679,28.2158],[129.3518,28.1605],[129.376,28.1196],[129.2693,28.2294],[129.1458,28.2499],[129.2708,28.2554],[129.2904,28.2841],[129.2277,28.3046],[129.2639,28.3288],[129.4754,28.4213],[129.5164,28.3933],[129.6262,28.4827],[129.6441,28.4398],[129.6731,28.5098],[129.7114,28.4556]]],[[[129.7149,29.6545],[129.7438,29.6223],[129.721,29.6061],[129.7149,29.6545]]],[[[129.8887,29.8775],[129.9273,29.8259],[129.8328,29.8731],[129.8887,29.8775]]],[[[130.6694,30.3397],[130.5773,30.2359],[130.486,30.2258],[130.4377,30.239],[130.3762,30.3944],[130.499,30.468],[130.6387,30.4027],[130.6694,30.3397]]],[[[131.0615,30.8406],[131.0789,30.6991],[130.967,30.4794],[130.9778,30.4003],[130.8704,30.3439],[130.8515,30.4701],[130.9302,30.5409],[130.9393,30.6723],[131.0615,30.8406]]],[[[130.1133,32.2076],[130.1908,32.1646],[130.1493,32.1105],[130.1133,32.2076]]],[[[130.363,32.5271],[130.4685,32.5116],[130.3623,32.375],[130.3539,32.4241],[130.242,32.3955],[130.2131,32.4365],[130.363,32.5271]]],[[[130.1895,32.5218],[130.2034,32.3389],[129.9955,32.1907],[130.0091,32.2521],[129.9613,32.2521],[130.0643,32.3068],[129.9797,32.333],[130.0303,32.4824],[130.0029,32.5334],[130.1895,32.5218]]],[[[128.8937,32.6576],[128.7796,32.6468],[128.7731,32.5717],[128.6004,32.6142],[128.6527,32.6679],[128.6608,32.7828],[128.6997,32.7438],[128.8085,32.7999],[128.8937,32.6576]]],[[[139.7398,33.1332],[139.8775,33.0876],[139.8358,33.0398],[139.7398,33.1332]]],[[[129.1097,32.9829],[129.1828,32.9847],[129.0457,32.8221],[129.0478,32.91],[128.9815,32.9604],[129.0545,32.9793],[129.0486,33.0396],[129.084,33.0234],[129.1082,33.1667],[129.1097,32.9829]]],[[[129.5557,33.4108],[129.4466,33.1985],[129.376,33.1697],[129.3425,33.1796],[129.3499,33.2135],[129.4065,33.194],[129.3777,33.2146],[129.4427,33.3481],[129.5557,33.4108]]],[[[132.2088,33.8001],[132.273,33.7685],[132.1883,33.7797],[132.2088,33.8001]]],[[[129.7996,33.7648],[129.721,33.6977],[129.6571,33.7426],[129.6886,33.8711],[129.7673,33.8445],[129.7996,33.7648]]],[[[132.2312,33.8639],[132.1863,33.9212],[132.2261,33.9527],[132.3262,33.8963],[132.4695,33.9379],[132.374,33.8417],[132.3186,33.8833],[132.2312,33.8639]]],[[[139.4944,34.0928],[139.5563,34.1135],[139.575,34.09],[139.5061,34.0359],[139.4944,34.0928]]],[[[132.5806,34.0998],[132.4553,34.0881],[132.5433,34.1767],[132.5806,34.0998]]],[[[132.9639,34.1919],[132.9697,34.2526],[133.03,34.2953],[133.0518,34.2223],[132.9639,34.1919]]],[[[129.2074,34.3293],[129.3471,34.287],[129.2766,34.1291],[129.1716,34.1068],[129.2074,34.3293]]],[[[139.2546,34.3535],[139.301,34.4179],[139.2678,34.3227],[139.2546,34.3535]]],[[[135.0282,34.591],[134.903,34.419],[134.9583,34.2704],[134.7287,34.1909],[134.7239,34.2526],[134.6572,34.2882],[134.6833,34.3282],[134.8838,34.5295],[135.0282,34.591]]],[[[129.4646,34.7008],[129.3618,34.4055],[129.4008,34.3379],[129.3438,34.3003],[129.3093,34.3844],[129.2864,34.344],[129.2289,34.3556],[129.3109,34.4605],[129.276,34.4622],[129.3261,34.5354],[129.2891,34.5699],[129.3233,34.6481],[129.4646,34.7008]]],[[[139.4378,34.7719],[139.4538,34.6789],[139.3594,34.7023],[139.3565,34.7972],[139.4378,34.7719]]],[[[133.0213,35.9958],[133.0452,36.02],[133.0791,35.9936],[133.0213,35.9958]]],[[[133.3818,36.2577],[133.326,36.1581],[133.1878,36.2161],[133.2095,36.2972],[133.292,36.3425],[133.3818,36.2577]]],[[[138.4382,38.0835],[138.5752,38.0743],[138.5752,38.0351],[138.4865,37.8918],[138.2151,37.8096],[138.3425,37.9669],[138.2479,37.9785],[138.2531,38.0903],[138.5142,38.3231],[138.4382,38.0835]]],[[[139.5642,42.2318],[139.509,42.1008],[139.4456,42.0548],[139.4238,42.1916],[139.5642,42.2318]]],[[[145.3444,43.5759],[145.2835,43.5179],[145.332,43.5654],[145.2024,43.6138],[145.3444,43.5759]]],[[[144.4551,43.9422],[144.449,43.942],[144.4483,43.9422],[144.4551,43.9422]]],[[[141.3356,45.1578],[141.2354,45.1025],[141.1501,45.1471],[141.1318,45.2103],[141.2352,45.2413],[141.3356,45.1578]]],[[[141.069,45.4427],[141.0591,45.322],[141.0357,45.2649],[140.9668,45.4634],[141.069,45.4427]]],[[[140.8679,27.234],[140.8782,27.2326],[140.87,27.2182],[140.8679,27.234]]],[[[127.8098,26.7354],[127.7586,26.7129],[127.7546,26.7286],[127.8098,26.7354]]],[[[127.9954,27.0917],[127.9758,27.0397],[127.9258,27.0098],[127.9954,27.0917]]],[[[130.1418,30.4893],[130.2622,30.435],[130.2125,30.4207],[130.1418,30.4893]]],[[[134.3633,34.5454],[134.3469,34.4308],[134.3206,34.4689],[134.2444,34.4177],[134.2432,34.4639],[134.1614,34.4792],[134.1751,34.5201],[134.3633,34.5454]]],[[[141.4557,24.2159],[141.47,24.2263],[141.4679,24.2138],[141.4557,24.2159]]],[[[153.973,24.2897],[153.9837,24.2829],[153.972,24.2848],[153.973,24.2897]]],[[[141.2874,25.4177],[141.2748,25.4511],[141.2975,25.4453],[141.2874,25.4177]]],[[[131.2909,25.9387],[131.3279,25.9371],[131.3166,25.9231],[131.2909,25.9387]]],[[[127.2222,26.5989],[127.2368,26.5792],[127.2088,26.582],[127.2222,26.5989]]],[[[128.4443,27.0626],[128.4314,27.0217],[128.3963,27.049],[128.4443,27.0626]]],[[[142.1892,27.1455],[142.1909,27.1852],[142.2004,27.1833],[142.1892,27.1455]]],[[[142.1795,27.6125],[142.1929,27.6162],[142.1953,27.5991],[142.1795,27.6125]]],[[[142.0786,27.7272],[142.0851,27.7261],[142.0806,27.7169],[142.0786,27.7272]]],[[[128.2298,27.869],[128.2434,27.8572],[128.2415,27.8454],[128.2298,27.869]]],[[[129.5996,29.4433],[129.6081,29.4692],[129.6123,29.4433],[129.5996,29.4433]]],[[[129.5399,29.8899],[129.5433,29.9081],[129.5545,29.8975],[129.5399,29.8899]]],[[[129.9453,29.9616],[129.9006,29.9726],[129.909,29.9993],[129.922,30.0047],[129.9453,29.9616]]],[[[140.3014,30.4863],[140.3259,30.4852],[140.3065,30.4736],[140.3014,30.4863]]],[[[129.4282,30.8464],[129.4338,30.8446],[129.4295,30.8409],[129.4282,30.8464]]],[[[129.9321,30.8518],[129.9395,30.8134],[129.904,30.8344],[129.9321,30.8518]]],[[[140.0444,31.4451],[140.0457,31.4433],[140.0435,31.4431],[140.0444,31.4451]]],[[[140.0413,31.4442],[140.0431,31.4446],[140.0415,31.4431],[140.0413,31.4442]]],[[[139.7571,32.4704],[139.7738,32.441],[139.7564,32.4523],[139.7571,32.4704]]],[[[139.2962,33.6511],[139.2991,33.6507],[139.2991,33.6501],[139.2962,33.6511]]],[[[139.6096,33.8964],[139.5942,33.8547],[139.5798,33.8803],[139.6096,33.8964]]],[[[139.3403,41.5238],[139.3743,41.5043],[139.3408,41.4975],[139.3403,41.5238]]],[[[153.9662,24.3087],[153.9407,24.3115],[153.9537,24.3158],[153.9662,24.3087]]],[[[125.1636,24.8546],[125.2053,24.805],[125.1401,24.8164],[125.1636,24.8546]]],[[[127.3462,26.2064],[127.3611,26.164],[127.3535,26.154],[127.3462,26.2064]]],[[[142.1052,27.727],[142.1117,27.7259],[142.1072,27.7167],[142.1052,27.727]]],[[[129.9285,31.8639],[129.8899,31.8107],[129.8206,31.8455],[129.845,31.8806],[129.9285,31.8639]]],[[[130.2229,32.2921],[130.2536,32.2716],[130.2107,32.2554],[130.2229,32.2921]]],[[[130.4136,32.6136],[130.4458,32.5526],[130.4092,32.5493],[130.4136,32.6136]]],[[[132.5486,32.7508],[132.5708,32.7173],[132.5432,32.7084],[132.5486,32.7508]]],[[[128.9028,32.8142],[128.8823,32.7653],[128.8352,32.7877],[128.8373,32.8338],[128.9028,32.8142]]],[[[128.9465,32.8802],[128.9451,32.8043],[128.8807,32.8626],[128.9465,32.8802]]],[[[128.9846,32.9292],[129.0241,32.848],[128.9641,32.8896],[128.9846,32.9292]]],[[[129.1283,33.3016],[129.1273,33.2475],[129.075,33.2599],[129.1283,33.3016]]],[[[129.5418,33.5073],[129.5545,33.4735],[129.5032,33.4737],[129.5418,33.5073]]],[[[132.6439,34.0114],[132.6345,33.9648],[132.5891,33.9564],[132.5964,33.9809],[132.6439,34.0114]]],[[[133.0991,34.1752],[133.0452,34.1184],[133.0171,34.1188],[133.0331,34.1894],[133.0991,34.1752]]],[[[132.709,34.2033],[132.74,34.1599],[132.689,34.1899],[132.709,34.2033]]],[[[132.9285,34.284],[132.9168,34.2219],[132.8499,34.2152],[132.8464,34.2402],[132.9285,34.284]]],[[[132.3442,34.2956],[132.2959,34.2432],[132.2679,34.2445],[132.2988,34.2922],[132.3442,34.2956]]],[[[133.7083,34.3973],[133.7205,34.3638],[133.6958,34.3548],[133.7083,34.3973]]],[[[135.2052,34.4305],[135.2571,34.4358],[135.2105,34.4219],[135.2052,34.4305]]],[[[134.0395,34.4783],[134.0834,34.5007],[134.1045,34.4903],[134.084,34.4598],[134.0395,34.4783]]],[[[136.8726,34.4911],[136.9025,34.4861],[136.8832,34.4754],[136.8726,34.4911]]],[[[136.8902,34.5312],[136.9032,34.525],[136.8491,34.515],[136.8902,34.5312]]],[[[136.7981,34.8764],[136.826,34.8491],[136.8077,34.8392],[136.7981,34.8764]]],[[[137.0418,37.1597],[136.9473,37.097],[136.9053,37.1436],[137.0418,37.1597]]],[[[123.6063,25.739],[123.6004,25.7394],[123.6028,25.7455],[123.6063,25.739]]],[[[123.5289,25.7618],[123.5115,25.7581],[123.5453,25.7618],[123.5289,25.7618]]],[[[123.672,25.9275],[123.6717,25.9298],[123.673,25.9287],[123.672,25.9275]]]]}},{"type":"Feature","properties":{"source_index":248},"geometry":{"type":"MultiPolygon","coordinates":[[[[145.8117,18.1739],[145.8356,18.1283],[145.7195,18.0542],[145.7567,18.1618],[145.8117,18.1739]]],[[[145.6355,18.7472],[145.6504,18.8089],[145.6883,18.8074],[145.7051,18.7371],[145.6355,18.7472]]],[[[145.4137,19.6624],[145.3821,19.6841],[145.4099,19.6845],[145.4137,19.6624]]],[[[145.2586,20.0126],[145.2388,20.0504],[145.2728,20.0324],[145.2586,20.0126]]],[[[144.9258,20.5253],[144.9067,20.5515],[144.9318,20.5492],[144.9258,20.5253]]]]}},{"type":"Feature","properties":{"source_index":253},"geometry":{"type":"MultiPolygon","coordinates":[[[[113.5344,22.1612],[113.5875,22.1249],[113.5468,22.1054],[113.5344,22.1612]]],[[[113.5243,22.2126],[113.5571,22.2025],[113.5247,22.1737],[113.5243,22.2126]]]]}}]}
